[{"Name":"Bethany","Surname":"Gentry","Address":{"HouseNumber":"5","Street":"Central Rd.","City":"Corona Street","PostalCode":" NY 11779"}},{"Name":"Jacqueline","Surname":"Madden","Address":{"HouseNumber":"4","Street":"Pilgrim Court","City":"Center Drive","PostalCode":" FL 34711"}},{"Name":"Hezekiah","Surname":"Gaines","Address":{"HouseNumber":"7","Street":"Blackburn Avenue","City":"Kirkland St.","PostalCode":" RI 02895"}},{"Name":"Stella1","Surname":"Krause","Address":{"HouseNumber":"6","Street":"Bow Ridge Drive","City":"East Ivy Street","PostalCode":" ND 58201"}},{"Name":"Harper1","Surname":"Villarreal","Address":{"HouseNumber":"1","Street":"Court Court","City":"Market Street","PostalCode":" OH 44122"}},{"Name":"Harper2","Surname":"Rios","Address":{"HouseNumber":"3","Street":"Peninsula Drive","City":"Creek Ave.","PostalCode":" MI 48601"}},{"Name":"Dominique","Surname":"Kerr","Address":{"HouseNumber":"2","Street":"Dunbar St.","City":"W. Bedford Lane","PostalCode":" SC 29550"}},{"Name":"Emmett","Surname":"Rosario","Address":{"HouseNumber":"9","Street":"Golf St.","City":"S. Andover Ave.","PostalCode":" PA 17013"}},{"Name":"Emelia","Surname":"Ingram","Address":{"HouseNumber":"8","Street":"Thorne Road","City":"East Littleton Dr.","PostalCode":" PA 17522"}},{"Name":"Elaina","Surname":"Dudley","Address":{"HouseNumber":"41","Street":"Purple Finch Road","City":"Prince St.","PostalCode":" GA 31525"}},{"Name":"Esther","Surname":"Bowen","Address":{"HouseNumber":"40","Street":"Front Road","City":"Poor House Dr.","PostalCode":" MO 65401"}},{"Name":"Evelin","Surname":"Lawrence","Address":{"HouseNumber":"43","Street":"South Lawrence Drive","City":"Pheasant Rd.","PostalCode":" KY 40004"}},{"Name":"Winston","Surname":"Thompson","Address":{"HouseNumber":"42","Street":"Griffin St.","City":"Pheasant Dr.","PostalCode":" OH 45103"}},{"Name":"Whitney","Surname":"Kline","Address":{"HouseNumber":"45","Street":"Marconi Drive","City":"Young Ave.","PostalCode":" VA 23834"}},{"Name":"Demetrius","Surname":"Cummings","Address":{"HouseNumber":"44","Street":"Glenridge Rd.","City":"Young St.1","PostalCode":" PA 19320"}},{"Name":"Adelyn","Surname":"Kane","Address":{"HouseNumber":"46","Street":"Lees Creek Rd.","City":"Chapel Drive","PostalCode":" MD 20601"}},{"Name":"Adison","Surname":"Bradshaw","Address":{"HouseNumber":"49","Street":"Amerige Road","City":"Hall St.","PostalCode":" FL 33756"}},{"Name":"Adriel","Surname":"Decker","Address":{"HouseNumber":"48","Street":"Hartford Court","City":"Hartford Drive","PostalCode":" MD 21921"}},{"Name":"Aniyah","Surname":"Sellers","Address":{"HouseNumber":"50","Street":"Monroe St.","City":"Walnut Street","PostalCode":" AL 35007"}},{"Name":"Andres","Surname":"Mcmillan","Address":{"HouseNumber":"51","Street":"Sunnyslope Lane","City":"Bowman Ave.1","PostalCode":" MD 20832"}},{"Name":"Ansley","Surname":"Wilcox","Address":{"HouseNumber":"52","Street":"Warren Ave.","City":"Hartford Court","PostalCode":" PA 17701"}},{"Name":"Amanda","Surname":"Gregory","Address":{"HouseNumber":"53","Street":"Elmwood Lane","City":"Peg Shop Court","PostalCode":" TX 78418"}},{"Name":"Amaris","Surname":"Pugh","Address":{"HouseNumber":"54","Street":"Prince St.","City":"Central Rd.","PostalCode":" OH 44601"}},{"Name":"Alissa","Surname":"Estes","Address":{"HouseNumber":"55","Street":"Gregory Street","City":"Chestnut St.","PostalCode":" RI 02886"}},{"Name":"Alison","Surname":"Montes","Address":{"HouseNumber":"56","Street":"S. South Court","City":"Mayfair Ave.","PostalCode":" IL 60103"}},{"Name":"Aliyah","Surname":"Simmons","Address":{"HouseNumber":"57","Street":"2nd Court","City":"Johnson Dr.","PostalCode":" FL 34787"}},{"Name":"Alivia","Surname":"Molina","Address":{"HouseNumber":"58","Street":"Lyme Ave.","City":"Williams Drive","PostalCode":" NY 14850"}},{"Name":"Alanna","Surname":"Wallace","Address":{"HouseNumber":"59","Street":"Paris Hill Rd.","City":"Ridgeview Drive","PostalCode":" NJ 07011"}},{"Name":"Alayna","Surname":"Haley","Address":{"HouseNumber":"63","Street":"W. Armstrong St.","City":"Dunbar St.1","PostalCode":" NY 11590"}},{"Name":"Alyssa","Surname":"Carney","Address":{"HouseNumber":"62","Street":"North Parker Ave.","City":"Division Lane","PostalCode":" GA 30705"}},{"Name":"Autumn","Surname":"Hensley","Address":{"HouseNumber":"61","Street":"Glenholme St.","City":"Forest Ave.","PostalCode":" PA 17201"}},{"Name":"Aubrey","Surname":"Shields","Address":{"HouseNumber":"60","Street":"Wild Rose Ave.","City":"New Ave.","PostalCode":" VA 23228"}},{"Name":"Catherine","Surname":"Lowe","Address":{"HouseNumber":"67","Street":"Carriage Ave.","City":"New Dr.1","PostalCode":" VA 22101"}},{"Name":"Ashley","Surname":"Newton","Address":{"HouseNumber":"66","Street":"Glen Eagles Ave.","City":"Courtland Dr.","PostalCode":" IN 46360"}},{"Name":"Ashlee","Surname":"Barker","Address":{"HouseNumber":"65","Street":"Sherman Ave.","City":"Lancaster Ave.","PostalCode":" FL 32955"}},{"Name":"Arthur","Surname":"Benton","Address":{"HouseNumber":"64","Street":"Lookout Drive","City":"Greystone Lane","PostalCode":" MA 01841"}},{"Name":"Ariana","Surname":"Kirby","Address":{"HouseNumber":"69","Street":"Leeton Ridge Circle","City":"Lake View St.","PostalCode":" CA 92307"}},{"Name":"Azaria","Surname":"Small","Address":{"HouseNumber":"72","Street":"S. Virginia St.","City":"Mill Pond Drive","PostalCode":" TX 75080"}},{"Name":"Frank1","Surname":"Glenn","Address":{"HouseNumber":"73","Street":"Harrison Street","City":"Young St.","PostalCode":" ME 04240"}},{"Name":"Jacqueline1","Surname":"Ryan","Address":{"HouseNumber":"70","Street":"High Noon Avenue","City":"Lees Creek Rd.","PostalCode":" MA 02048"}},{"Name":"Gracie","Surname":"Fletcher","Address":{"HouseNumber":"71","Street":"Marconi Drive","City":"W. Lantern Ave.","PostalCode":" NY 11378"}},{"Name":"Graham","Surname":"Liu","Address":{"HouseNumber":"76","Street":"Foster St.","City":"Ivy Dr.","PostalCode":" OR 97402"}},{"Name":"Damian","Surname":"Villegas","Address":{"HouseNumber":"77","Street":"Pendergast St.","City":"Fordham St.","PostalCode":" MD 20874"}},{"Name":"Damon1","Surname":"Fritz","Address":{"HouseNumber":"74","Street":"River St.","City":"East Lane","PostalCode":" CA 91733"}},{"Name":"Dalton","Surname":"Avery","Address":{"HouseNumber":"75","Street":"West Stonybrook Rd.","City":"Primrose Court","PostalCode":" MI 48322"}},{"Name":"Darien","Surname":"Kane","Address":{"HouseNumber":"14","Street":"Ivy Dr.","City":"Arnold St.1","PostalCode":" NY 11553"}},{"Name":"Dayton","Surname":"Mccoy","Address":{"HouseNumber":"15","Street":"Fifth Street","City":"Euclid Road","PostalCode":" MI 49684"}},{"Name":"Dayami","Surname":"Swanson","Address":{"HouseNumber":"16","Street":"W. Fieldstone Dr.","City":"Tower Rd.","PostalCode":" NJ 08873"}},{"Name":"Declan","Surname":"Cordova","Address":{"HouseNumber":"17","Street":"Tower Rd.","City":"S. Bridgeton Ave.","PostalCode":" AZ 85365"}},{"Name":"Dennis","Surname":"Gregory","Address":{"HouseNumber":"10","Street":"Galvin Rd.","City":"Shub Farm Street","PostalCode":" NY 10573"}},{"Name":"Denise","Surname":"Moyer","Address":{"HouseNumber":"11","Street":"Old Marsh Court","City":"Marvon Dr.","PostalCode":" MI 48103"}},{"Name":"Dereon","Surname":"Mccormick","Address":{"HouseNumber":"12","Street":"Hartford Drive","City":"2nd Lane","PostalCode":" TX 79106"}},{"Name":"Trenton","Surname":"Ali","Address":{"HouseNumber":"13","Street":"Broad Road","City":"Marshall Dr.","PostalCode":" PA 18015"}},{"Name":"Trinity","Surname":"Horne","Address":{"HouseNumber":"18","Street":"High Ridge St.","City":"Bellevue Drive","PostalCode":" NY 10701"}},{"Name":"Donald","Surname":"Bird","Address":{"HouseNumber":"19","Street":"Bedford Street","City":"Peachtree Road","PostalCode":" OH 45011"}},{"Name":"Dustin","Surname":"Mercado","Address":{"HouseNumber":"27","Street":"High Ridge Rd.","City":"Rockledge Street","PostalCode":" NY 14701"}},{"Name":"Hadassah","Surname":"Scott","Address":{"HouseNumber":"26","Street":"Blue Spring St.","City":"James Drive","PostalCode":" NJ 07039"}},{"Name":"Micah2","Surname":"Espinoza","Address":{"HouseNumber":"25","Street":"Trenton Drive","City":"Wrangler St.","PostalCode":" SC 29803"}},{"Name":"Micah1","Surname":"Richmond","Address":{"HouseNumber":"24","Street":"Wrangler St.","City":"Sunnyslope Road","PostalCode":" FL 32806"}},{"Name":"Miriam","Surname":"Oconnor","Address":{"HouseNumber":"23","Street":"Lyme Dr.","City":"Sunnyslope Lane","PostalCode":" IN 46321"}},{"Name":"Misael","Surname":"Moody","Address":{"HouseNumber":"22","Street":"East Thompson Drive","City":"Glenridge Rd.","PostalCode":" CA 93555"}},{"Name":"Mollie","Surname":"Higgins","Address":{"HouseNumber":"21","Street":"Columbia St.","City":"Monroe St.","PostalCode":" WI 53562"}},{"Name":"Makena","Surname":"Palmer","Address":{"HouseNumber":"20","Street":"East Lane","City":"Poor House Street","PostalCode":" NJ 07093"}},{"Name":"Maddox","Surname":"Nicholson","Address":{"HouseNumber":"29","Street":"Cardinal Street","City":"Mountainview Street","PostalCode":" MA 01970"}},{"Name":"Macey1","Surname":"Johns","Address":{"HouseNumber":"28","Street":"Wrangler St.","City":"Smith Dr.","PostalCode":" MD 21044"}},{"Name":"Matteo","Surname":"Stephens","Address":{"HouseNumber":"37","Street":"South Newbridge St.","City":"Smith Rd.","PostalCode":" TN 37918"}},{"Name":"Mariah","Surname":"Jimenez","Address":{"HouseNumber":"34","Street":"Theatre Ave.","City":"Elmwood Lane","PostalCode":" NJ 08080"}},{"Name":"Marcus","Surname":"Mathews","Address":{"HouseNumber":"35","Street":"Sleepy Hollow Street","City":"Old Marsh Court","PostalCode":" MD 21060"}},{"Name":"Meadow","Surname":"Wise","Address":{"HouseNumber":"32","Street":"Arch Lane","City":"Pierce Dr.","PostalCode":" GA 30252"}},{"Name":"Baron1","Surname":"Wade","Address":{"HouseNumber":"30","Street":"San Carlos Avenue","City":"Pierce St.","PostalCode":" NJ 07110"}},{"Name":"Bianca","Surname":"Gamble","Address":{"HouseNumber":"31","Street":"Gulf St.","City":"S. Beech Road","PostalCode":" NY 12401"}},{"Name":"Bradyn","Surname":"Rangel","Address":{"HouseNumber":"89","Street":"Center St.","City":"River St.1","PostalCode":" MA 01880"}},{"Name":"Scarlet","Surname":"Underwood","Address":{"HouseNumber":"88","Street":"Union Ave.","City":"Windfall St.","PostalCode":" WV 26301"}},{"Name":"Conner","Surname":"Randall","Address":{"HouseNumber":"85","Street":"NW. Westminster Dr.","City":"Windfall Dr.","PostalCode":" VA 23803"}},{"Name":"Cooper","Surname":"Phelps","Address":{"HouseNumber":"84","Street":"Hudson Street","City":"NW. Third Dr.","PostalCode":" IN 46526"}},{"Name":"Cortez","Surname":"Barron","Address":{"HouseNumber":"87","Street":"Hillside Drive","City":"East High Point St.","PostalCode":" GA 30052"}},{"Name":"Carson","Surname":"Campos","Address":{"HouseNumber":"86","Street":"10th Court","City":"Vernon Lane","PostalCode":" IL 60110"}},{"Name":"Carlie","Surname":"Davies","Address":{"HouseNumber":"81","Street":"Edgewood Court","City":"River St.","PostalCode":" OH 44146"}},{"Name":"Carlos","Surname":"Ayala","Address":{"HouseNumber":"80","Street":"Princess Lane","City":"Third St.","PostalCode":" IA 50158"}},{"Name":"Cassie","Surname":"Phelps","Address":{"HouseNumber":"83","Street":"Mill Drive","City":"Pennington Ave.1","PostalCode":" FL 33445"}},{"Name":"Isabela","Surname":"Wolfe","Address":{"HouseNumber":"82","Street":"S. Southampton St.","City":"Pennington Drive","PostalCode":" FL 33442"}},{"Name":"Cullen","Surname":"Velazquez","Address":{"HouseNumber":"98","Street":"Snake Hill Avenue","City":"Pennington Court","PostalCode":" CA 90278"}},{"Name":"Tyshawn","Surname":"Allen","Address":{"HouseNumber":"99","Street":"Amherst St.","City":"Green Hill Dr.","PostalCode":" MN 55104"}},{"Name":"Alessandra","Surname":"Gray","Address":{"HouseNumber":"94","Street":"W. Highland Street","City":"Longbranch Court","PostalCode":" GA 30030"}},{"Name":"Izayah","Surname":"Perkins","Address":{"HouseNumber":"95","Street":"Smith Store St.","City":"Harrison St.","PostalCode":" NY 11413"}},{"Name":"Kingston","Surname":"Chase","Address":{"HouseNumber":"96","Street":"Euclid Street","City":"Longbranch Drive","PostalCode":" WI 54952"}},{"Name":"Ishaan","Surname":"Caldwell","Address":{"HouseNumber":"97","Street":"Glen Creek Street","City":"N. Pennsylvania Drive","PostalCode":" MA 01886"}},{"Name":"Lillian1","Surname":"Dudley","Address":{"HouseNumber":"90","Street":"W. Bedford Lane","City":"San Juan St.","PostalCode":" NY 11967"}},{"Name":"Dominique1","Surname":"Boone","Address":{"HouseNumber":"91","Street":"East Lane","City":"Hillside St.","PostalCode":" NJ 07055"}},{"Name":"Nancy1","Surname":"Wilkerson","Address":{"HouseNumber":"92","Street":"Marshall Dr.","City":"North Parker Ave.","PostalCode":" VA 23139"}},{"Name":"Nevaeh","Surname":"Holloway","Address":{"HouseNumber":"93","Street":"Young St.","City":"Lakeview Circle","PostalCode":" MI 48423"}},{"Name":"Nyasia","Surname":"Zhang","Address":{"HouseNumber":"72131","Street":"Clay Road","City":"East Rock Creek St.","PostalCode":" NY 11746"}},{"Name":"Solomon","Surname":"Kramer","Address":{"HouseNumber":"401","Street":"Airport St.","City":"S. Spruce Ave.","PostalCode":" GA 30236"}},{"Name":"Nicolas","Surname":"Stanley","Address":{"HouseNumber":"403","Street":"Rocky River Lane","City":"Clay Road","PostalCode":" WI 53546"}},{"Name":"Damarion","Surname":"Michael","Address":{"HouseNumber":"402","Street":"Ketch Harbour St.","City":"Clay Ave.","PostalCode":" MD 21222"}},{"Name":"Landin","Surname":"Orozco","Address":{"HouseNumber":"410","Street":"Rockland Street","City":"Clay Lane","PostalCode":" MD 21701"}},{"Name":"Lamont","Surname":"Smith","Address":{"HouseNumber":"419","Street":"Mill Pond Drive","City":"Lake View Street","PostalCode":" FL 32303"}},{"Name":"London","Surname":"Powers","Address":{"HouseNumber":"421","Street":"Market Street","City":"Birch Hill St.","PostalCode":" PA 19454"}},{"Name":"Lorena","Surname":"Bernard","Address":{"HouseNumber":"420","Street":"Eagle Street","City":"Birch Hill Dr.","PostalCode":" MS 38632"}},{"Name":"Sabrina","Surname":"Marsh","Address":{"HouseNumber":"424","Street":"Gulf Street","City":"Third Lane","PostalCode":" MA 02038"}},{"Name":"Bryanna","Surname":"Malone","Address":{"HouseNumber":"429","Street":"Fordham St.","City":"High Noon Ave.","PostalCode":" MI 49417"}},{"Name":"Brenton","Surname":"Spears","Address":{"HouseNumber":"436","Street":"Baker St.","City":"Mayfair St.","PostalCode":" FL 33917"}},{"Name":"Brennan","Surname":"Benson","Address":{"HouseNumber":"434","Street":"Baker Lane","City":"Arnold St.","PostalCode":" NC 28803"}},{"Name":"Brennen","Surname":"Atkins","Address":{"HouseNumber":"444","Street":"Valley Farms St.","City":"Pineknoll St.","PostalCode":" NY 11725"}},{"Name":"Brendan","Surname":"Holt","Address":{"HouseNumber":"441","Street":"Pennington Ave.","City":"Bedford Street","PostalCode":" VA 22180"}},{"Name":"Bridget","Surname":"Diaz","Address":{"HouseNumber":"443","Street":"Lancaster Ave.","City":"Leeton Ridge Court","PostalCode":" MN 55033"}},{"Name":"Jordon","Surname":"Bishop","Address":{"HouseNumber":"442","Street":"Forest Ave.","City":"La Sierra Ave.","PostalCode":" NJ 08081"}},{"Name":"Jensen","Surname":"Schaefer","Address":{"HouseNumber":"456","Street":"Brook Avenue","City":"Warren Ave.","PostalCode":" WV 26101"}},{"Name":"Jessie","Surname":"Bonilla","Address":{"HouseNumber":"451","Street":"Manchester Ave.","City":"Mayfield Drive","PostalCode":" MI 48331"}},{"Name":"Jamari","Surname":"Fischer","Address":{"HouseNumber":"458","Street":"Pheasant Street","City":"Pine Drive","PostalCode":" MI 48146"}},{"Name":"Jaida1","Surname":"Henson","Address":{"HouseNumber":"461","Street":"Forest Ave.","City":"Cooper St.1","PostalCode":" FL 33404"}},{"Name":"Jakobe","Surname":"Perkins","Address":{"HouseNumber":"476","Street":"South Garden St.","City":"Bridgeton Street","PostalCode":" MI 48180"}},{"Name":"Jaelyn","Surname":"Le","Address":{"HouseNumber":"489","Street":"West Lane","City":"South Garden St.","PostalCode":" MD 20744"}},{"Name":"Jaeden","Surname":"Flowers","Address":{"HouseNumber":"485","Street":"Riverview Avenue","City":"Green St.","PostalCode":" WV 25801"}},{"Name":"Jaden1","Surname":"Mcdonald","Address":{"HouseNumber":"491","Street":"Smith Dr.","City":"South Ryan Street","PostalCode":" NY 12866"}},{"Name":"Jaydin","Surname":"Case","Address":{"HouseNumber":"492","Street":"Honey Creek Street","City":"Westminster Lane","PostalCode":" IA 50023"}},{"Name":"Jaxson","Surname":"Flowers","Address":{"HouseNumber":"500","Street":"Division Lane","City":"Strawberry Drive","PostalCode":" NC 28031"}},{"Name":"Javier","Surname":"Cohen","Address":{"HouseNumber":"501","Street":"Mayfair Ave.","City":"Randall Mill Road","PostalCode":" IN 46140"}},{"Name":"Javion","Surname":"Wagner","Address":{"HouseNumber":"522","Street":"Addison St.","City":"E. Thompson Ave.","PostalCode":" NY 11368"}},{"Name":"Jaron1","Surname":"Mullen","Address":{"HouseNumber":"521","Street":"Cypress St.","City":"Durham Avenue","PostalCode":" OH 43551"}},{"Name":"Julien","Surname":"Schwartz","Address":{"HouseNumber":"526","Street":"Harrison Street","City":"Boston Drive","PostalCode":" MI 48167"}},{"Name":"Konner","Surname":"Clayton","Address":{"HouseNumber":"511","Street":"North Williams St.","City":"W. Franklin Lane","PostalCode":" AL 36330"}},{"Name":"Kieran","Surname":"Huber","Address":{"HouseNumber":"510","Street":"Hanover Street","City":"Oak Meadow Court","PostalCode":" IL 60181"}},{"Name":"Tatiana","Surname":"Harmon","Address":{"HouseNumber":"512","Street":"S. River Ave.","City":"Shipley St.","PostalCode":" MS 38654"}},{"Name":"Kenzie","Surname":"Snow","Address":{"HouseNumber":"545","Street":"Mayfair St.","City":"Broad Road","PostalCode":" WI 54956"}},{"Name":"Keagan","Surname":"Mills","Address":{"HouseNumber":"540","Street":"Pheasant Rd.","City":"W. Green Lake Ave.","PostalCode":" TX 75043"}},{"Name":"Keenan","Surname":"Acevedo","Address":{"HouseNumber":"543","Street":"Arnold St.","City":"Golf St.","PostalCode":" FL 32404"}},{"Name":"Kallie","Surname":"Bishop","Address":{"HouseNumber":"537","Street":"Strawberry Drive","City":"Thorne Road","PostalCode":" PA 18064"}},{"Name":"Kamora","Surname":"Miranda","Address":{"HouseNumber":"539","Street":"Wild Horse Street","City":"Campfire Dr.","PostalCode":" MA 02138"}},{"Name":"Kaylie","Surname":"Andersen","Address":{"HouseNumber":"564","Street":"Dunbar St.","City":"Clark Dr.","PostalCode":" WI 54911"}},{"Name":"Karley","Surname":"Ross","Address":{"HouseNumber":"565","Street":"St Margarets Street","City":"Hill Field Avenue","PostalCode":" NY 12550"}},{"Name":"Karina","Surname":"Ramos","Address":{"HouseNumber":"562","Street":"Peg Shop Court","City":"Glen Creek Street","PostalCode":" GA 30040"}},{"Name":"Hallie","Surname":"Jacobson","Address":{"HouseNumber":"563","Street":"Overlook Drive","City":"South Beech Street","PostalCode":" NJ 07740"}},{"Name":"Hailie","Surname":"Owens","Address":{"HouseNumber":"561","Street":"Kirkland Drive","City":"Pineknoll Road","PostalCode":" MI 48430"}},{"Name":"Harper","Surname":"Gilbert","Address":{"HouseNumber":"553","Street":"Beach Road","City":"Foster St.","PostalCode":" GA 30101"}},{"Name":"Harley","Surname":"Bullock","Address":{"HouseNumber":"552","Street":"Bedford Drive","City":"Oklahoma Ave.","PostalCode":" MI 48236"}},{"Name":"Princess","Surname":"Burton","Address":{"HouseNumber":"580","Street":"Peachtree Road","City":"Deerfield Circle","PostalCode":" IL 60174"}},{"Name":"Milagros","Surname":"Macias","Address":{"HouseNumber":"582","Street":"Trenton Drive","City":"Gregory Street","PostalCode":" NJ 08759"}},{"Name":"Quinton","Surname":"Leon","Address":{"HouseNumber":"576","Street":"Lake View Street","City":"Devon St.","PostalCode":" NC 28052"}},{"Name":"Magdalena","Surname":"Miranda","Address":{"HouseNumber":"572","Street":"Mulberry Ave.","City":"Valley Farms St.","PostalCode":" CT 06410"}},{"Name":"Veronica","Surname":"Clay","Address":{"HouseNumber":"579","Street":"Washington Street","City":"Dogwood Road","PostalCode":" NJ 07960"}},{"Name":"Cameron1","Surname":"Wilcox","Address":{"HouseNumber":"628","Street":"Adams Rd.","City":"Dogwood Ave.","PostalCode":" PA 15642"}},{"Name":"Natalya","Surname":"Ponce","Address":{"HouseNumber":"631","Street":"Clark Dr.","City":"S. Garfield Street","PostalCode":" IN 46514"}},{"Name":"Natalia","Surname":"Williamson","Address":{"HouseNumber":"632","Street":"Shipley Street","City":"Trenton Dr.","PostalCode":" GA 30096"}},{"Name":"Natalie","Surname":"Potts","Address":{"HouseNumber":"633","Street":"Smoky Hollow Street","City":"Cedarwood Rd.","PostalCode":" GA 31204"}},{"Name":"Wilson","Surname":"Singleton","Address":{"HouseNumber":"602","Street":"Ivy Lane","City":"Wrangler St.1","PostalCode":" NY 11552"}},{"Name":"Willow","Surname":"Roman","Address":{"HouseNumber":"601","Street":"Thompson St.","City":"High Ridge St.","PostalCode":" MN 56401"}},{"Name":"Trevin","Surname":"Mcpherson","Address":{"HouseNumber":"606","Street":"Logan St.","City":"High Ridge Rd.","PostalCode":" WI 53186"}},{"Name":"Tyree1","Surname":"Branch","Address":{"HouseNumber":"611","Street":"Center Drive","City":"High Ridge Dr.","PostalCode":" MI 48045"}},{"Name":"Zachery","Surname":"Roberts","Address":{"HouseNumber":"614","Street":"Hill Field Avenue","City":"West Shore Lane","PostalCode":" OH 45324"}},{"Name":"Tiana1","Surname":"Chang","Address":{"HouseNumber":"615","Street":"Logan St.","City":"Sage Court","PostalCode":" OH 43035"}},{"Name":"Stephany","Surname":"Hancock","Address":{"HouseNumber":"665","Street":"Chestnut St.","City":"Branch Drive","PostalCode":" PA 19406"}},{"Name":"Shayna1","Surname":"Saunders","Address":{"HouseNumber":"661","Street":"Green Lake St.","City":"Vale St.","PostalCode":" MA 02169"}},{"Name":"Reese1","Surname":"Roth","Address":{"HouseNumber":"663","Street":"N. Vermont Court","City":"West Edgefield Dr.","PostalCode":" WI 54729"}},{"Name":"Regina","Surname":"Knapp","Address":{"HouseNumber":"662","Street":"Euclid Road","City":"Green Lake St.","PostalCode":" IL 60016"}},{"Name":"Rashad","Surname":"Villa","Address":{"HouseNumber":"674","Street":"Deerfield Circle","City":"Purple Finch Road","PostalCode":" FL 33771"}},{"Name":"Raegan","Surname":"Orozco","Address":{"HouseNumber":"670","Street":"S. Evergreen Dr.","City":"South Peachtree St.","PostalCode":" NY 11102"}},{"Name":"Rachel","Surname":"Holt","Address":{"HouseNumber":"671","Street":"Theatre Street","City":"New Dr.","PostalCode":" PA 15044"}},{"Name":"Raiden","Surname":"Acevedo","Address":{"HouseNumber":"678","Street":"E. Greenview Drive","City":"Roberts Lane","PostalCode":" PA 19020"}},{"Name":"Gregory","Surname":"Rangel","Address":{"HouseNumber":"648","Street":"East High Point St.","City":"Paris Hill Dr.1","PostalCode":" MA 01902"}},{"Name":"Stacy1","Surname":"Donovan","Address":{"HouseNumber":"652","Street":"Bridge Ave.","City":"Middle River St.","PostalCode":" FL 33905"}},{"Name":"Stella","Surname":"Ritter","Address":{"HouseNumber":"653","Street":"Longfellow Dr.","City":"W. Marsh Circle","PostalCode":" CA 95301"}},{"Name":"Steven","Surname":"Dickson","Address":{"HouseNumber":"651","Street":"Cypress Ave.","City":"Bedford Drive","PostalCode":" FL 32725"}},{"Name":"Allisson","Surname":"Adkins","Address":{"HouseNumber":"682","Street":"S. Spruce Ave.","City":"Bridge Ave.","PostalCode":" MA 01453"}},{"Name":"Sergio","Surname":"Preston","Address":{"HouseNumber":"680","Street":"Albany St.","City":"Amherst St.","PostalCode":" MS 39120"}},{"Name":"Seamus","Surname":"Flowers","Address":{"HouseNumber":"684","Street":"Applegate St.","City":"County St.1","PostalCode":" PA 18052"}},{"Name":"Priscilla","Surname":"Gamble","Address":{"HouseNumber":"692","Street":"Cedarwood Rd.","City":"High Ridge Street","PostalCode":" NY 11757"}},{"Name":"Samson","Surname":"Richards","Address":{"HouseNumber":"695","Street":"E. 1st St.","City":"Leeton Ridge Circle","PostalCode":" TN 37128"}},{"Name":"Sammy1","Surname":"Lawson","Address":{"HouseNumber":"720","Street":"Baker Ave.","City":"Maple Street","PostalCode":" FL 32907"}},{"Name":"Skylar","Surname":"Browning","Address":{"HouseNumber":"721","Street":"N. Mayfair Lane","City":"Cypress St.","PostalCode":" IA 50501"}},{"Name":"Skyler","Surname":"Warner","Address":{"HouseNumber":"725","Street":"Foster Street","City":"Harrison Street1","PostalCode":" PA 19053"}},{"Name":"Simeon","Surname":"Flowers","Address":{"HouseNumber":"701","Street":"W. Roehampton Circle","City":"Griffin St.","PostalCode":" PA 16506"}},{"Name":"Sidney","Surname":"Watkins","Address":{"HouseNumber":"706","Street":"Pilgrim Dr.","City":"Broad Street","PostalCode":" OH 43420"}},{"Name":"Sienna","Surname":"Howe","Address":{"HouseNumber":"707","Street":"North Hamilton Ave.","City":"Rockwell Ave.","PostalCode":" OH 44203"}},{"Name":"Shiloh","Surname":"Small","Address":{"HouseNumber":"761","Street":"Acacia St.","City":"Pendergast Rd.","PostalCode":" WI 54650"}},{"Name":"Shayna","Surname":"Dennis","Address":{"HouseNumber":"717","Street":"Applegate Street","City":"Pendergast St.","PostalCode":" MN 56601"}},{"Name":"Shamar","Surname":"Bentley","Address":{"HouseNumber":"716","Street":"Beechwood Dr.","City":"Westminster Circle","PostalCode":" MA 01201"}},{"Name":"Pranav","Surname":"Mcfarland","Address":{"HouseNumber":"777","Street":"Roberts Lane","City":"NE. Pin Oak Ave.","PostalCode":" NJ 07410"}},{"Name":"Parker","Surname":"Black","Address":{"HouseNumber":"770","Street":"Miller St.","City":"Bow Ridge Drive","PostalCode":" GA 30075"}},{"Name":"Pierce","Surname":"Graves","Address":{"HouseNumber":"772","Street":"NW. Third Dr.","City":"Old York St.","PostalCode":" NJ 08046"}},{"Name":"Mitchell","Surname":"Potts","Address":{"HouseNumber":"756","Street":"Kirkland St.","City":"High Noon Avenue","PostalCode":" WI 53402"}},{"Name":"Yadiel","Surname":"Costa","Address":{"HouseNumber":"751","Street":"Yukon St.","City":"E. Magnolia St.","PostalCode":" NC 27330"}},{"Name":"Demarcus","Surname":"Sharp","Address":{"HouseNumber":"781","Street":"Jockey Hollow Avenue","City":"Marconi Drive","PostalCode":" OH 44240"}},{"Name":"Jeffrey1","Surname":"Vance","Address":{"HouseNumber":"786","Street":"East Division Ave.","City":"Jennings Dr.","PostalCode":" MA 02453"}},{"Name":"Celeste","Surname":"Moreno","Address":{"HouseNumber":"798","Street":"East Street","City":"Rocky River Lane","PostalCode":" MI 48035"}},{"Name":"Jameson1","Surname":"Graham","Address":{"HouseNumber":"792","Street":"New Dr.","City":"Hudson Street","PostalCode":" OH 44646"}},{"Name":"Jovanny","Surname":"Morse","Address":{"HouseNumber":"795","Street":"Corona St.","City":"Longbranch St.","PostalCode":" RI 02852"}},{"Name":"Corinne","Surname":"Morales","Address":{"HouseNumber":"794","Street":"Green St.","City":"Trenton Drive","PostalCode":" IL 60047"}},{"Name":"Xavier","Surname":"Brady","Address":{"HouseNumber":"140","Street":"Addison St.","City":"S. Birchpond St.","PostalCode":" NY 14304"}},{"Name":"Jillian","Surname":"Barajas","Address":{"HouseNumber":"141","Street":"West Clay Ave.","City":"North Williams St.","PostalCode":" NY 11364"}},{"Name":"Alannah1","Surname":"Huber","Address":{"HouseNumber":"142","Street":"Pierce Dr.","City":"Smith Store St.","PostalCode":" NJ 07087"}},{"Name":"Camille","Surname":"Jenkins","Address":{"HouseNumber":"143","Street":"Lees Creek Drive","City":"Lilac Rd.","PostalCode":" NJ 07430"}},{"Name":"Cameron","Surname":"Lynch","Address":{"HouseNumber":"144","Street":"Jennings Dr.","City":"Central Drive","PostalCode":" PA 19050"}},{"Name":"Caitlyn","Surname":"Stafford","Address":{"HouseNumber":"145","Street":"Wagon St.","City":"West Harrison St.","PostalCode":" TN 37659"}},{"Name":"Cassidy","Surname":"Frey","Address":{"HouseNumber":"162","Street":"West Shore Lane","City":"Walt Whitman St.","PostalCode":" SC 29841"}},{"Name":"ResourcesAddresses","Surname":"<?xml version=\"1.0\" encoding=\"utf-8\"?>\r\n<root>\r\n  <!-- \r\n    Microsoft ResX Schema \r\n    \r\n    Version 2.0\r\n    \r\n    The primary goals of this format is to allow a simple XML format \r\n    that is mostly human readable. The generation and parsing of the \r\n    various data types are done through the TypeConverter classes \r\n    associated with the data types.\r\n    \r\n    Example:\r\n    \r\n    ... ado.net/XML headers & schema ...\r\n    <resheader name=\"resmimetype\">text/microsoft-resx</resheader>\r\n    <resheader name=\"version\">2.0</resheader>\r\n    <resheader name=\"reader\">System.Resources.ResXResourceReader, System.Windows.Forms, ...</resheader>\r\n    <resheader name=\"writer\">System.Resources.ResXResourceWriter, System.Windows.Forms, ...</resheader>\r\n    <data name=\"Name1\"><value>this is my long string</value><comment>this is a comment</comment></data>\r\n    <data name=\"Color1\" type=\"System.Drawing.Color, System.Drawing\">Blue</data>\r\n    <data name=\"Bitmap1\" mimetype=\"application/x-microsoft.net.object.binary.base64\">\r\n        <value>[base64 mime encoded serialized .NET Framework object]</value>\r\n    </data>\r\n    <data name=\"Icon1\" type=\"System.Drawing.Icon, System.Drawing\" mimetype=\"application/x-microsoft.net.object.bytearray.base64\">\r\n        <value>[base64 mime encoded string representing a byte array form of the .NET Framework object]</value>\r\n        <comment>This is a comment</comment>\r\n    </data>\r\n                \r\n    There are any number of \"resheader\" rows that contain simple \r\n    name/value pairs.\r\n    \r\n    Each data row contains a name, and value. The row also contains a \r\n    type or mimetype. Type corresponds to a .NET class that support \r\n    text/value conversion through the TypeConverter architecture. \r\n    Classes that don't support this are serialized and stored with the \r\n    mimetype set.\r\n    \r\n    The mimetype is used for serialized objects, and tells the \r\n    ResXResourceReader how to depersist the object. This is currently not \r\n    extensible. For a given mimetype the value must be set accordingly:\r\n    \r\n    Note - application/x-microsoft.net.object.binary.base64 is the format \r\n    that the ResXResourceWriter will generate, however the reader can \r\n    read any of the formats listed below.\r\n    \r\n    mimetype: application/x-microsoft.net.object.binary.base64\r\n    value   : The object must be serialized with \r\n            : System.Runtime.Serialization.Formatters.Binary.BinaryFormatter\r\n            : and then encoded with base64 encoding.\r\n    \r\n    mimetype: application/x-microsoft.net.object.soap.base64\r\n    value   : The object must be serialized with \r\n            : System.Runtime.Serialization.Formatters.Soap.SoapFormatter\r\n            : and then encoded with base64 encoding.\r\n\r\n    mimetype: application/x-microsoft.net.object.bytearray.base64\r\n    value   : The object must be serialized into a byte array \r\n            : using a System.ComponentModel.TypeConverter\r\n            : and then encoded with base64 encoding.\r\n    -->\r\n  <xsd:schema id=\"root\" xmlns=\"\" xmlns:xsd=\"http://www.w3.org/2001/XMLSchema\" xmlns:msdata=\"urn:schemas-microsoft-com:xml-msdata\">\r\n    <xsd:import namespace=\"http://www.w3.org/XML/1998/namespace\" />\r\n    <xsd:element name=\"root\" msdata:IsDataSet=\"true\">\r\n      <xsd:complexType>\r\n        <xsd:choice maxOccurs=\"unbounded\">\r\n          <xsd:element name=\"metadata\">\r\n            <xsd:complexType>\r\n              <xsd:sequence>\r\n                <xsd:element name=\"value\" type=\"xsd:string\" minOccurs=\"0\" />\r\n              </xsd:sequence>\r\n              <xsd:attribute name=\"name\" use=\"required\" type=\"xsd:string\" />\r\n              <xsd:attribute name=\"type\" type=\"xsd:string\" />\r\n              <xsd:attribute name=\"mimetype\" type=\"xsd:string\" />\r\n              <xsd:attribute ref=\"xml:space\" />\r\n            </xsd:complexType>\r\n          </xsd:element>\r\n          <xsd:element name=\"assembly\">\r\n            <xsd:complexType>\r\n              <xsd:attribute name=\"alias\" type=\"xsd:string\" />\r\n              <xsd:attribute name=\"name\" type=\"xsd:string\" />\r\n            </xsd:complexType>\r\n          </xsd:element>\r\n          <xsd:element name=\"data\">\r\n            <xsd:complexType>\r\n              <xsd:sequence>\r\n                <xsd:element name=\"value\" type=\"xsd:string\" minOccurs=\"0\" msdata:Ordinal=\"1\" />\r\n                <xsd:element name=\"comment\" type=\"xsd:string\" minOccurs=\"0\" msdata:Ordinal=\"2\" />\r\n              </xsd:sequence>\r\n              <xsd:attribute name=\"name\" type=\"xsd:string\" use=\"required\" msdata:Ordinal=\"1\" />\r\n              <xsd:attribute name=\"type\" type=\"xsd:string\" msdata:Ordinal=\"3\" />\r\n              <xsd:attribute name=\"mimetype\" type=\"xsd:string\" msdata:Ordinal=\"4\" />\r\n              <xsd:attribute ref=\"xml:space\" />\r\n            </xsd:complexType>\r\n          </xsd:element>\r\n          <xsd:element name=\"resheader\">\r\n            <xsd:complexType>\r\n              <xsd:sequence>\r\n                <xsd:element name=\"value\" type=\"xsd:string\" minOccurs=\"0\" msdata:Ordinal=\"1\" />\r\n              </xsd:sequence>\r\n              <xsd:attribute name=\"name\" type=\"xsd:string\" use=\"required\" />\r\n            </xsd:complexType>\r\n          </xsd:element>\r\n        </xsd:choice>\r\n      </xsd:complexType>\r\n    </xsd:element>\r\n  </xsd:schema>\r\n  <resheader name=\"resmimetype\">\r\n    <value>text/microsoft-resx</value>\r\n  </resheader>\r\n  <resheader name=\"version\">\r\n    <value>2.0</value>\r\n  </resheader>\r\n  <resheader name=\"reader\">\r\n    <value>System.Resources.ResXResourceReader, System.Windows.Forms, Version=4.0.0.0, Culture=neutral, PublicKeyToken=b77a5c561934e089</value>\r\n  </resheader>\r\n  <resheader name=\"writer\">\r\n    <value>System.Resources.ResXResourceWriter, System.Windows.Forms, Version=4.0.0.0, Culture=neutral, PublicKeyToken=b77a5c561934e089</value>\r\n  </resheader>\r\n  <data name=\"1\" xml:space=\"preserve\">\r\n    <value>Court Court</value>\r\n  </data>\r\n  <data name=\"10\" xml:space=\"preserve\">\r\n    <value>Galvin Rd.</value>\r\n  </data>\r\n  <data name=\"100\" xml:space=\"preserve\">\r\n    <value>Corona Street</value>\r\n  </data>\r\n  <data name=\"101\" xml:space=\"preserve\">\r\n    <value>Green Hill Dr.</value>\r\n  </data>\r\n  <data name=\"102\" xml:space=\"preserve\">\r\n    <value>Windfall St.</value>\r\n  </data>\r\n  <data name=\"105\" xml:space=\"preserve\">\r\n    <value>Livingston Drive</value>\r\n  </data>\r\n  <data name=\"11\" xml:space=\"preserve\">\r\n    <value>Old Marsh Court</value>\r\n  </data>\r\n  <data name=\"110\" xml:space=\"preserve\">\r\n    <value>Manor Court</value>\r\n  </data>\r\n  <data name=\"114\" xml:space=\"preserve\">\r\n    <value>Longbranch Court</value>\r\n  </data>\r\n  <data name=\"1141\" xml:space=\"preserve\">\r\n    <value>Clay Ave.</value>\r\n  </data>\r\n  <data name=\"115\" xml:space=\"preserve\">\r\n    <value>Colonial St.</value>\r\n  </data>\r\n  <data name=\"118\" xml:space=\"preserve\">\r\n    <value>Shub Farm Street</value>\r\n  </data>\r\n  <data name=\"12\" xml:space=\"preserve\">\r\n    <value>Hartford Drive</value>\r\n  </data>\r\n  <data name=\"121\" xml:space=\"preserve\">\r\n    <value>County St.</value>\r\n  </data>\r\n  <data name=\"1211\" xml:space=\"preserve\">\r\n    <value>Main Dr.</value>\r\n  </data>\r\n  <data name=\"122\" xml:space=\"preserve\">\r\n    <value>Ketch Harbour Ave.</value>\r\n  </data>\r\n  <data name=\"1221\" xml:space=\"preserve\">\r\n    <value>Pin Oak St.</value>\r\n  </data>\r\n  <data name=\"123\" xml:space=\"preserve\">\r\n    <value>Wood St.</value>\r\n  </data>\r\n  <data name=\"125\" xml:space=\"preserve\">\r\n    <value>E. Belmont St.</value>\r\n  </data>\r\n  <data name=\"13\" xml:space=\"preserve\">\r\n    <value>Broad Road</value>\r\n  </data>\r\n  <data name=\"132\" xml:space=\"preserve\">\r\n    <value>Pendergast Rd.</value>\r\n  </data>\r\n  <data name=\"14\" xml:space=\"preserve\">\r\n    <value>Ivy Dr.</value>\r\n  </data>\r\n  <data name=\"140\" xml:space=\"preserve\">\r\n    <value>Addison St.</value>\r\n  </data>\r\n  <data name=\"141\" xml:space=\"preserve\">\r\n    <value>West Clay Ave.</value>\r\n  </data>\r\n  <data name=\"142\" xml:space=\"preserve\">\r\n    <value>Pierce Dr.</value>\r\n  </data>\r\n  <data name=\"143\" xml:space=\"preserve\">\r\n    <value>Lees Creek Drive</value>\r\n  </data>\r\n  <data name=\"144\" xml:space=\"preserve\">\r\n    <value>Jennings Dr.</value>\r\n  </data>\r\n  <data name=\"145\" xml:space=\"preserve\">\r\n    <value>Wagon St.</value>\r\n  </data>\r\n  <data name=\"15\" xml:space=\"preserve\">\r\n    <value>Fifth Street</value>\r\n  </data>\r\n  <data name=\"151\" xml:space=\"preserve\">\r\n    <value>High Ridge Street</value>\r\n  </data>\r\n  <data name=\"156\" xml:space=\"preserve\">\r\n    <value>Mayfield Drive</value>\r\n  </data>\r\n  <data name=\"157\" xml:space=\"preserve\">\r\n    <value>West Edgefield Dr.</value>\r\n  </data>\r\n  <data name=\"16\" xml:space=\"preserve\">\r\n    <value>W. Fieldstone Dr.</value>\r\n  </data>\r\n  <data name=\"161\" xml:space=\"preserve\">\r\n    <value>W. Green Lake Ave.</value>\r\n  </data>\r\n  <data name=\"162\" xml:space=\"preserve\">\r\n    <value>West Shore Lane</value>\r\n  </data>\r\n  <data name=\"166\" xml:space=\"preserve\">\r\n    <value>Glenholme Street</value>\r\n  </data>\r\n  <data name=\"17\" xml:space=\"preserve\">\r\n    <value>Tower Rd.</value>\r\n  </data>\r\n  <data name=\"170\" xml:space=\"preserve\">\r\n    <value>Harrison St.</value>\r\n  </data>\r\n  <data name=\"171\" xml:space=\"preserve\">\r\n    <value>W. Franklin Lane</value>\r\n  </data>\r\n  <data name=\"172\" xml:space=\"preserve\">\r\n    <value>Branch Drive</value>\r\n  </data>\r\n  <data name=\"18\" xml:space=\"preserve\">\r\n    <value>High Ridge St.</value>\r\n  </data>\r\n  <data name=\"181\" xml:space=\"preserve\">\r\n    <value>Paris Hill Dr.</value>\r\n  </data>\r\n  <data name=\"187\" xml:space=\"preserve\">\r\n    <value>Primrose St.</value>\r\n  </data>\r\n  <data name=\"19\" xml:space=\"preserve\">\r\n    <value>Bedford Street</value>\r\n  </data>\r\n  <data name=\"191\" xml:space=\"preserve\">\r\n    <value>Devon St.</value>\r\n  </data>\r\n  <data name=\"192\" xml:space=\"preserve\">\r\n    <value>Cypress St.</value>\r\n  </data>\r\n  <data name=\"1921\" xml:space=\"preserve\">\r\n    <value>Alderwood Street</value>\r\n  </data>\r\n  <data name=\"194\" xml:space=\"preserve\">\r\n    <value>George Street</value>\r\n  </data>\r\n  <data name=\"2\" xml:space=\"preserve\">\r\n    <value>Dunbar St.</value>\r\n  </data>\r\n  <data name=\"20\" xml:space=\"preserve\">\r\n    <value>East Lane</value>\r\n  </data>\r\n  <data name=\"200\" xml:space=\"preserve\">\r\n    <value>N. Pennsylvania Drive</value>\r\n  </data>\r\n  <data name=\"201\" xml:space=\"preserve\">\r\n    <value>William St.</value>\r\n  </data>\r\n  <data name=\"208\" xml:space=\"preserve\">\r\n    <value>Surrey Dr.</value>\r\n  </data>\r\n  <data name=\"209\" xml:space=\"preserve\">\r\n    <value>W. Gonzales Street</value>\r\n  </data>\r\n  <data name=\"21\" xml:space=\"preserve\">\r\n    <value>Columbia St.</value>\r\n  </data>\r\n  <data name=\"210\" xml:space=\"preserve\">\r\n    <value>Pennington Court</value>\r\n  </data>\r\n  <data name=\"216\" xml:space=\"preserve\">\r\n    <value>Cherry Ave.</value>\r\n  </data>\r\n  <data name=\"219\" xml:space=\"preserve\">\r\n    <value>4th St.</value>\r\n  </data>\r\n  <data name=\"22\" xml:space=\"preserve\">\r\n    <value>East Thompson Drive</value>\r\n  </data>\r\n  <data name=\"221\" xml:space=\"preserve\">\r\n    <value>Galvin Court</value>\r\n  </data>\r\n  <data name=\"223\" xml:space=\"preserve\">\r\n    <value>Arlington Dr.</value>\r\n  </data>\r\n  <data name=\"227\" xml:space=\"preserve\">\r\n    <value>Devon St.</value>\r\n  </data>\r\n  <data name=\"23\" xml:space=\"preserve\">\r\n    <value>Lyme Dr.</value>\r\n  </data>\r\n  <data name=\"230\" xml:space=\"preserve\">\r\n    <value>East Hill Street</value>\r\n  </data>\r\n  <data name=\"231\" xml:space=\"preserve\">\r\n    <value>Locust Ave.</value>\r\n  </data>\r\n  <data name=\"232\" xml:space=\"preserve\">\r\n    <value>Country Club St.</value>\r\n  </data>\r\n  <data name=\"233\" xml:space=\"preserve\">\r\n    <value>Windfall Dr.</value>\r\n  </data>\r\n  <data name=\"234\" xml:space=\"preserve\">\r\n    <value>Wild Horse Lane</value>\r\n  </data>\r\n  <data name=\"237\" xml:space=\"preserve\">\r\n    <value>W. Marsh Circle</value>\r\n  </data>\r\n  <data name=\"238\" xml:space=\"preserve\">\r\n    <value>Illinois Rd.</value>\r\n  </data>\r\n  <data name=\"24\" xml:space=\"preserve\">\r\n    <value>Wrangler St.</value>\r\n  </data>\r\n  <data name=\"241\" xml:space=\"preserve\">\r\n    <value>Mayfield Dr.</value>\r\n  </data>\r\n  <data name=\"242\" xml:space=\"preserve\">\r\n    <value>Randall Mill Road</value>\r\n  </data>\r\n  <data name=\"245\" xml:space=\"preserve\">\r\n    <value>Young St.</value>\r\n  </data>\r\n  <data name=\"2451\" xml:space=\"preserve\">\r\n    <value>South Shadow Brook Street</value>\r\n  </data>\r\n  <data name=\"25\" xml:space=\"preserve\">\r\n    <value>Trenton Drive</value>\r\n  </data>\r\n  <data name=\"255\" xml:space=\"preserve\">\r\n    <value>Lilac Rd.</value>\r\n  </data>\r\n  <data name=\"26\" xml:space=\"preserve\">\r\n    <value>Blue Spring St.</value>\r\n  </data>\r\n  <data name=\"261\" xml:space=\"preserve\">\r\n    <value>NE. Lafayette Avenue</value>\r\n  </data>\r\n  <data name=\"27\" xml:space=\"preserve\">\r\n    <value>High Ridge Rd.</value>\r\n  </data>\r\n  <data name=\"271\" xml:space=\"preserve\">\r\n    <value>Vale St.</value>\r\n  </data>\r\n  <data name=\"272\" xml:space=\"preserve\">\r\n    <value>West Pleasant Lane</value>\r\n  </data>\r\n  <data name=\"273\" xml:space=\"preserve\">\r\n    <value>Paris Hill Dr.</value>\r\n  </data>\r\n  <data name=\"278\" xml:space=\"preserve\">\r\n    <value>River St.</value>\r\n  </data>\r\n  <data name=\"279\" xml:space=\"preserve\">\r\n    <value>Clinton Dr.</value>\r\n  </data>\r\n  <data name=\"28\" xml:space=\"preserve\">\r\n    <value>Wrangler St.</value>\r\n  </data>\r\n  <data name=\"286\" xml:space=\"preserve\">\r\n    <value>N. Sulphur Springs St.</value>\r\n  </data>\r\n  <data name=\"288\" xml:space=\"preserve\">\r\n    <value>NW. Main Court</value>\r\n  </data>\r\n  <data name=\"2881\" xml:space=\"preserve\">\r\n    <value>Thomas Rd.</value>\r\n  </data>\r\n  <data name=\"29\" xml:space=\"preserve\">\r\n    <value>Cardinal Street</value>\r\n  </data>\r\n  <data name=\"298\" xml:space=\"preserve\">\r\n    <value>W. Swanson Rd.</value>\r\n  </data>\r\n  <data name=\"3\" xml:space=\"preserve\">\r\n    <value>Peninsula Drive</value>\r\n  </data>\r\n  <data name=\"30\" xml:space=\"preserve\">\r\n    <value>San Carlos Avenue</value>\r\n  </data>\r\n  <data name=\"301\" xml:space=\"preserve\">\r\n    <value>New Ave.</value>\r\n  </data>\r\n  <data name=\"302\" xml:space=\"preserve\">\r\n    <value>Carpenter Court</value>\r\n  </data>\r\n  <data name=\"303\" xml:space=\"preserve\">\r\n    <value>Courtland Dr.</value>\r\n  </data>\r\n  <data name=\"308\" xml:space=\"preserve\">\r\n    <value>Princeton Ave.</value>\r\n  </data>\r\n  <data name=\"309\" xml:space=\"preserve\">\r\n    <value>Pennington Street</value>\r\n  </data>\r\n  <data name=\"31\" xml:space=\"preserve\">\r\n    <value>Gulf St.</value>\r\n  </data>\r\n  <data name=\"315\" xml:space=\"preserve\">\r\n    <value>Bay Court</value>\r\n  </data>\r\n  <data name=\"316\" xml:space=\"preserve\">\r\n    <value>E. Hartford Court</value>\r\n  </data>\r\n  <data name=\"318\" xml:space=\"preserve\">\r\n    <value>Prospect Street</value>\r\n  </data>\r\n  <data name=\"32\" xml:space=\"preserve\">\r\n    <value>Arch Lane</value>\r\n  </data>\r\n  <data name=\"322\" xml:space=\"preserve\">\r\n    <value>Wild Horse Dr.</value>\r\n  </data>\r\n  <data name=\"324\" xml:space=\"preserve\">\r\n    <value>Leeton Ridge Court</value>\r\n  </data>\r\n  <data name=\"325\" xml:space=\"preserve\">\r\n    <value>Mountainview Street</value>\r\n  </data>\r\n  <data name=\"332\" xml:space=\"preserve\">\r\n    <value>Campfire Street</value>\r\n  </data>\r\n  <data name=\"338\" xml:space=\"preserve\">\r\n    <value>West Foxrun St.</value>\r\n  </data>\r\n  <data name=\"339\" xml:space=\"preserve\">\r\n    <value>South Ryan Street</value>\r\n  </data>\r\n  <data name=\"34\" xml:space=\"preserve\">\r\n    <value>Theatre Ave.</value>\r\n  </data>\r\n  <data name=\"341\" xml:space=\"preserve\">\r\n    <value>Whitemarsh Lane</value>\r\n  </data>\r\n  <data name=\"344\" xml:space=\"preserve\">\r\n    <value>Orange St.</value>\r\n  </data>\r\n  <data name=\"35\" xml:space=\"preserve\">\r\n    <value>Sleepy Hollow Street</value>\r\n  </data>\r\n  <data name=\"351\" xml:space=\"preserve\">\r\n    <value>Middle River St.</value>\r\n  </data>\r\n  <data name=\"353\" xml:space=\"preserve\">\r\n    <value>Lake Forest Circle</value>\r\n  </data>\r\n  <data name=\"363\" xml:space=\"preserve\">\r\n    <value>Clay Lane</value>\r\n  </data>\r\n  <data name=\"37\" xml:space=\"preserve\">\r\n    <value>South Newbridge St.</value>\r\n  </data>\r\n  <data name=\"371\" xml:space=\"preserve\">\r\n    <value>Cypress Ave.</value>\r\n  </data>\r\n  <data name=\"378\" xml:space=\"preserve\">\r\n    <value>Maple Street</value>\r\n  </data>\r\n  <data name=\"380\" xml:space=\"preserve\">\r\n    <value>Durham Drive</value>\r\n  </data>\r\n  <data name=\"392\" xml:space=\"preserve\">\r\n    <value>Glen Creek Ave.</value>\r\n  </data>\r\n  <data name=\"396\" xml:space=\"preserve\">\r\n    <value>Walt Whitman St.</value>\r\n  </data>\r\n  <data name=\"4\" xml:space=\"preserve\">\r\n    <value>Pilgrim Court</value>\r\n  </data>\r\n  <data name=\"40\" xml:space=\"preserve\">\r\n    <value>Front Road</value>\r\n  </data>\r\n  <data name=\"401\" xml:space=\"preserve\">\r\n    <value>Airport St.</value>\r\n  </data>\r\n  <data name=\"4011\" xml:space=\"preserve\">\r\n    <value>West Park Rd.</value>\r\n  </data>\r\n  <data name=\"402\" xml:space=\"preserve\">\r\n    <value>Ketch Harbour St.</value>\r\n  </data>\r\n  <data name=\"403\" xml:space=\"preserve\">\r\n    <value>Rocky River Lane</value>\r\n  </data>\r\n  <data name=\"41\" xml:space=\"preserve\">\r\n    <value>Purple Finch Road</value>\r\n  </data>\r\n  <data name=\"410\" xml:space=\"preserve\">\r\n    <value>Rockland Street</value>\r\n  </data>\r\n  <data name=\"419\" xml:space=\"preserve\">\r\n    <value>Mill Pond Drive</value>\r\n  </data>\r\n  <data name=\"42\" xml:space=\"preserve\">\r\n    <value>Griffin St.</value>\r\n  </data>\r\n  <data name=\"420\" xml:space=\"preserve\">\r\n    <value>Eagle Street</value>\r\n  </data>\r\n  <data name=\"421\" xml:space=\"preserve\">\r\n    <value>Market Street</value>\r\n  </data>\r\n  <data name=\"424\" xml:space=\"preserve\">\r\n    <value>Gulf Street</value>\r\n  </data>\r\n  <data name=\"429\" xml:space=\"preserve\">\r\n    <value>Fordham St.</value>\r\n  </data>\r\n  <data name=\"43\" xml:space=\"preserve\">\r\n    <value>South Lawrence Drive</value>\r\n  </data>\r\n  <data name=\"434\" xml:space=\"preserve\">\r\n    <value>Baker Lane</value>\r\n  </data>\r\n  <data name=\"436\" xml:space=\"preserve\">\r\n    <value>Baker St.</value>\r\n  </data>\r\n  <data name=\"44\" xml:space=\"preserve\">\r\n    <value>Glenridge Rd.</value>\r\n  </data>\r\n  <data name=\"441\" xml:space=\"preserve\">\r\n    <value>Pennington Ave.</value>\r\n  </data>\r\n  <data name=\"442\" xml:space=\"preserve\">\r\n    <value>Forest Ave.</value>\r\n  </data>\r\n  <data name=\"443\" xml:space=\"preserve\">\r\n    <value>Lancaster Ave.</value>\r\n  </data>\r\n  <data name=\"444\" xml:space=\"preserve\">\r\n    <value>Valley Farms St.</value>\r\n  </data>\r\n  <data name=\"45\" xml:space=\"preserve\">\r\n    <value>Marconi Drive</value>\r\n  </data>\r\n  <data name=\"451\" xml:space=\"preserve\">\r\n    <value>Manchester Ave.</value>\r\n  </data>\r\n  <data name=\"456\" xml:space=\"preserve\">\r\n    <value>Brook Avenue</value>\r\n  </data>\r\n  <data name=\"458\" xml:space=\"preserve\">\r\n    <value>Pheasant Street</value>\r\n  </data>\r\n  <data name=\"46\" xml:space=\"preserve\">\r\n    <value>Lees Creek Rd.</value>\r\n  </data>\r\n  <data name=\"461\" xml:space=\"preserve\">\r\n    <value>Forest Ave.</value>\r\n  </data>\r\n  <data name=\"476\" xml:space=\"preserve\">\r\n    <value>South Garden St.</value>\r\n  </data>\r\n  <data name=\"48\" xml:space=\"preserve\">\r\n    <value>Hartford Court</value>\r\n  </data>\r\n  <data name=\"485\" xml:space=\"preserve\">\r\n    <value>Riverview Avenue</value>\r\n  </data>\r\n  <data name=\"489\" xml:space=\"preserve\">\r\n    <value>West Lane</value>\r\n  </data>\r\n  <data name=\"49\" xml:space=\"preserve\">\r\n    <value>Amerige Road</value>\r\n  </data>\r\n  <data name=\"491\" xml:space=\"preserve\">\r\n    <value>Smith Dr.</value>\r\n  </data>\r\n  <data name=\"492\" xml:space=\"preserve\">\r\n    <value>Honey Creek Street</value>\r\n  </data>\r\n  <data name=\"5\" xml:space=\"preserve\">\r\n    <value>Central Rd.</value>\r\n  </data>\r\n  <data name=\"50\" xml:space=\"preserve\">\r\n    <value>Monroe St.</value>\r\n  </data>\r\n  <data name=\"500\" xml:space=\"preserve\">\r\n    <value>Division Lane</value>\r\n  </data>\r\n  <data name=\"501\" xml:space=\"preserve\">\r\n    <value>Mayfair Ave.</value>\r\n  </data>\r\n  <data name=\"51\" xml:space=\"preserve\">\r\n    <value>Sunnyslope Lane</value>\r\n  </data>\r\n  <data name=\"510\" xml:space=\"preserve\">\r\n    <value>Hanover Street</value>\r\n  </data>\r\n  <data name=\"511\" xml:space=\"preserve\">\r\n    <value>North Williams St.</value>\r\n  </data>\r\n  <data name=\"512\" xml:space=\"preserve\">\r\n    <value>S. River Ave.</value>\r\n  </data>\r\n  <data name=\"52\" xml:space=\"preserve\">\r\n    <value>Warren Ave.</value>\r\n  </data>\r\n  <data name=\"521\" xml:space=\"preserve\">\r\n    <value>Cypress St.</value>\r\n  </data>\r\n  <data name=\"522\" xml:space=\"preserve\">\r\n    <value>Addison St.</value>\r\n  </data>\r\n  <data name=\"526\" xml:space=\"preserve\">\r\n    <value>Harrison Street</value>\r\n  </data>\r\n  <data name=\"53\" xml:space=\"preserve\">\r\n    <value>Elmwood Lane</value>\r\n  </data>\r\n  <data name=\"537\" xml:space=\"preserve\">\r\n    <value>Strawberry Drive</value>\r\n  </data>\r\n  <data name=\"539\" xml:space=\"preserve\">\r\n    <value>Wild Horse Street</value>\r\n  </data>\r\n  <data name=\"54\" xml:space=\"preserve\">\r\n    <value>Prince St.</value>\r\n  </data>\r\n  <data name=\"540\" xml:space=\"preserve\">\r\n    <value>Pheasant Rd.</value>\r\n  </data>\r\n  <data name=\"543\" xml:space=\"preserve\">\r\n    <value>Arnold St.</value>\r\n  </data>\r\n  <data name=\"545\" xml:space=\"preserve\">\r\n    <value>Mayfair St.</value>\r\n  </data>\r\n  <data name=\"55\" xml:space=\"preserve\">\r\n    <value>Gregory Street</value>\r\n  </data>\r\n  <data name=\"552\" xml:space=\"preserve\">\r\n    <value>Bedford Drive</value>\r\n  </data>\r\n  <data name=\"553\" xml:space=\"preserve\">\r\n    <value>Beach Road</value>\r\n  </data>\r\n  <data name=\"56\" xml:space=\"preserve\">\r\n    <value>S. South Court</value>\r\n  </data>\r\n  <data name=\"561\" xml:space=\"preserve\">\r\n    <value>Kirkland Drive</value>\r\n  </data>\r\n  <data name=\"562\" xml:space=\"preserve\">\r\n    <value>Peg Shop Court</value>\r\n  </data>\r\n  <data name=\"563\" xml:space=\"preserve\">\r\n    <value>Overlook Drive</value>\r\n  </data>\r\n  <data name=\"564\" xml:space=\"preserve\">\r\n    <value>Dunbar St.</value>\r\n  </data>\r\n  <data name=\"565\" xml:space=\"preserve\">\r\n    <value>St Margarets Street</value>\r\n  </data>\r\n  <data name=\"57\" xml:space=\"preserve\">\r\n    <value>2nd Court</value>\r\n  </data>\r\n  <data name=\"572\" xml:space=\"preserve\">\r\n    <value>Mulberry Ave.</value>\r\n  </data>\r\n  <data name=\"576\" xml:space=\"preserve\">\r\n    <value>Lake View Street</value>\r\n  </data>\r\n  <data name=\"579\" xml:space=\"preserve\">\r\n    <value>Washington Street</value>\r\n  </data>\r\n  <data name=\"58\" xml:space=\"preserve\">\r\n    <value>Lyme Ave.</value>\r\n  </data>\r\n  <data name=\"580\" xml:space=\"preserve\">\r\n    <value>Peachtree Road</value>\r\n  </data>\r\n  <data name=\"582\" xml:space=\"preserve\">\r\n    <value>Trenton Drive</value>\r\n  </data>\r\n  <data name=\"59\" xml:space=\"preserve\">\r\n    <value>Paris Hill Rd.</value>\r\n  </data>\r\n  <data name=\"6\" xml:space=\"preserve\">\r\n    <value>Bow Ridge Drive</value>\r\n  </data>\r\n  <data name=\"60\" xml:space=\"preserve\">\r\n    <value>Wild Rose Ave.</value>\r\n  </data>\r\n  <data name=\"601\" xml:space=\"preserve\">\r\n    <value>Thompson St.</value>\r\n  </data>\r\n  <data name=\"602\" xml:space=\"preserve\">\r\n    <value>Ivy Lane</value>\r\n  </data>\r\n  <data name=\"606\" xml:space=\"preserve\">\r\n    <value>Logan St.</value>\r\n  </data>\r\n  <data name=\"61\" xml:space=\"preserve\">\r\n    <value>Glenholme St.</value>\r\n  </data>\r\n  <data name=\"611\" xml:space=\"preserve\">\r\n    <value>Center Drive</value>\r\n  </data>\r\n  <data name=\"6111\" xml:space=\"preserve\">\r\n    <value>Madison Rd.</value>\r\n  </data>\r\n  <data name=\"614\" xml:space=\"preserve\">\r\n    <value>Hill Field Avenue</value>\r\n  </data>\r\n  <data name=\"615\" xml:space=\"preserve\">\r\n    <value>Logan St.</value>\r\n  </data>\r\n  <data name=\"62\" xml:space=\"preserve\">\r\n    <value>North Parker Ave.</value>\r\n  </data>\r\n  <data name=\"628\" xml:space=\"preserve\">\r\n    <value>Adams Rd.</value>\r\n  </data>\r\n  <data name=\"63\" xml:space=\"preserve\">\r\n    <value>W. Armstrong St.</value>\r\n  </data>\r\n  <data name=\"631\" xml:space=\"preserve\">\r\n    <value>Clark Dr.</value>\r\n  </data>\r\n  <data name=\"632\" xml:space=\"preserve\">\r\n    <value>Shipley Street</value>\r\n  </data>\r\n  <data name=\"633\" xml:space=\"preserve\">\r\n    <value>Smoky Hollow Street</value>\r\n  </data>\r\n  <data name=\"64\" xml:space=\"preserve\">\r\n    <value>Lookout Drive</value>\r\n  </data>\r\n  <data name=\"648\" xml:space=\"preserve\">\r\n    <value>East High Point St.</value>\r\n  </data>\r\n  <data name=\"65\" xml:space=\"preserve\">\r\n    <value>Sherman Ave.</value>\r\n  </data>\r\n  <data name=\"651\" xml:space=\"preserve\">\r\n    <value>Cypress Ave.</value>\r\n  </data>\r\n  <data name=\"652\" xml:space=\"preserve\">\r\n    <value>Bridge Ave.</value>\r\n  </data>\r\n  <data name=\"653\" xml:space=\"preserve\">\r\n    <value>Longfellow Dr.</value>\r\n  </data>\r\n  <data name=\"66\" xml:space=\"preserve\">\r\n    <value>Glen Eagles Ave.</value>\r\n  </data>\r\n  <data name=\"661\" xml:space=\"preserve\">\r\n    <value>Green Lake St.</value>\r\n  </data>\r\n  <data name=\"662\" xml:space=\"preserve\">\r\n    <value>Euclid Road</value>\r\n  </data>\r\n  <data name=\"663\" xml:space=\"preserve\">\r\n    <value>N. Vermont Court</value>\r\n  </data>\r\n  <data name=\"665\" xml:space=\"preserve\">\r\n    <value>Chestnut St.</value>\r\n  </data>\r\n  <data name=\"67\" xml:space=\"preserve\">\r\n    <value>Carriage Ave.</value>\r\n  </data>\r\n  <data name=\"670\" xml:space=\"preserve\">\r\n    <value>S. Evergreen Dr.</value>\r\n  </data>\r\n  <data name=\"671\" xml:space=\"preserve\">\r\n    <value>Theatre Street</value>\r\n  </data>\r\n  <data name=\"674\" xml:space=\"preserve\">\r\n    <value>Deerfield Circle</value>\r\n  </data>\r\n  <data name=\"678\" xml:space=\"preserve\">\r\n    <value>E. Greenview Drive</value>\r\n  </data>\r\n  <data name=\"680\" xml:space=\"preserve\">\r\n    <value>Albany St.</value>\r\n  </data>\r\n  <data name=\"682\" xml:space=\"preserve\">\r\n    <value>S. Spruce Ave.</value>\r\n  </data>\r\n  <data name=\"684\" xml:space=\"preserve\">\r\n    <value>Applegate St.</value>\r\n  </data>\r\n  <data name=\"69\" xml:space=\"preserve\">\r\n    <value>Leeton Ridge Circle</value>\r\n  </data>\r\n  <data name=\"692\" xml:space=\"preserve\">\r\n    <value>Cedarwood Rd.</value>\r\n  </data>\r\n  <data name=\"695\" xml:space=\"preserve\">\r\n    <value>E. 1st St.</value>\r\n  </data>\r\n  <data name=\"7\" xml:space=\"preserve\">\r\n    <value>Blackburn Avenue</value>\r\n  </data>\r\n  <data name=\"70\" xml:space=\"preserve\">\r\n    <value>High Noon Avenue</value>\r\n  </data>\r\n  <data name=\"701\" xml:space=\"preserve\">\r\n    <value>W. Roehampton Circle</value>\r\n  </data>\r\n  <data name=\"7011\" xml:space=\"preserve\">\r\n    <value>Gregory Ave.</value>\r\n  </data>\r\n  <data name=\"7012\" xml:space=\"preserve\">\r\n    <value>Strawberry Dr.</value>\r\n  </data>\r\n  <data name=\"706\" xml:space=\"preserve\">\r\n    <value>Pilgrim Dr.</value>\r\n  </data>\r\n  <data name=\"7069\" xml:space=\"preserve\">\r\n    <value>Fairway Court</value>\r\n  </data>\r\n  <data name=\"707\" xml:space=\"preserve\">\r\n    <value>North Hamilton Ave.</value>\r\n  </data>\r\n  <data name=\"7074\" xml:space=\"preserve\">\r\n    <value>North Sherwood Lane</value>\r\n  </data>\r\n  <data name=\"7087\" xml:space=\"preserve\">\r\n    <value>Wakehurst Street</value>\r\n  </data>\r\n  <data name=\"71\" xml:space=\"preserve\">\r\n    <value>Marconi Drive</value>\r\n  </data>\r\n  <data name=\"7128\" xml:space=\"preserve\">\r\n    <value>Edgefield Ave.</value>\r\n  </data>\r\n  <data name=\"7130\" xml:space=\"preserve\">\r\n    <value>Williams Drive</value>\r\n  </data>\r\n  <data name=\"7155\" xml:space=\"preserve\">\r\n    <value>John Ave.</value>\r\n  </data>\r\n  <data name=\"716\" xml:space=\"preserve\">\r\n    <value>Beechwood Dr.</value>\r\n  </data>\r\n  <data name=\"717\" xml:space=\"preserve\">\r\n    <value>Applegate Street</value>\r\n  </data>\r\n  <data name=\"7196\" xml:space=\"preserve\">\r\n    <value>Ann Avenue</value>\r\n  </data>\r\n  <data name=\"72\" xml:space=\"preserve\">\r\n    <value>S. Virginia St.</value>\r\n  </data>\r\n  <data name=\"720\" xml:space=\"preserve\">\r\n    <value>Baker Ave.</value>\r\n  </data>\r\n  <data name=\"721\" xml:space=\"preserve\">\r\n    <value>N. Mayfair Lane</value>\r\n  </data>\r\n  <data name=\"7213\" xml:space=\"preserve\">\r\n    <value>York St.</value>\r\n  </data>\r\n  <data name=\"72131\" xml:space=\"preserve\">\r\n    <value>Clay Road</value>\r\n  </data>\r\n  <data name=\"725\" xml:space=\"preserve\">\r\n    <value>Foster Street</value>\r\n  </data>\r\n  <data name=\"7273\" xml:space=\"preserve\">\r\n    <value>Pendergast St.</value>\r\n  </data>\r\n  <data name=\"7283\" xml:space=\"preserve\">\r\n    <value>Longbranch Drive</value>\r\n  </data>\r\n  <data name=\"7291\" xml:space=\"preserve\">\r\n    <value>S. Garfield Street</value>\r\n  </data>\r\n  <data name=\"7292\" xml:space=\"preserve\">\r\n    <value>Galvin Rd.</value>\r\n  </data>\r\n  <data name=\"73\" xml:space=\"preserve\">\r\n    <value>Harrison Street</value>\r\n  </data>\r\n  <data name=\"7309\" xml:space=\"preserve\">\r\n    <value>Blackburn Street</value>\r\n  </data>\r\n  <data name=\"7316\" xml:space=\"preserve\">\r\n    <value>Pierce St.</value>\r\n  </data>\r\n  <data name=\"7317\" xml:space=\"preserve\">\r\n    <value>Bowman Ave.</value>\r\n  </data>\r\n  <data name=\"7333\" xml:space=\"preserve\">\r\n    <value>Sleepy Hollow St.</value>\r\n  </data>\r\n  <data name=\"7338\" xml:space=\"preserve\">\r\n    <value>Pheasant Street</value>\r\n  </data>\r\n  <data name=\"7359\" xml:space=\"preserve\">\r\n    <value>Pheasant Street</value>\r\n  </data>\r\n  <data name=\"74\" xml:space=\"preserve\">\r\n    <value>River St.</value>\r\n  </data>\r\n  <data name=\"7416\" xml:space=\"preserve\">\r\n    <value>Santa Clara Circle</value>\r\n  </data>\r\n  <data name=\"7423\" xml:space=\"preserve\">\r\n    <value>High Ridge Dr.</value>\r\n  </data>\r\n  <data name=\"7425\" xml:space=\"preserve\">\r\n    <value>Central Drive</value>\r\n  </data>\r\n  <data name=\"7426\" xml:space=\"preserve\">\r\n    <value>Bowman Ave.</value>\r\n  </data>\r\n  <data name=\"7455\" xml:space=\"preserve\">\r\n    <value>Young Ave.</value>\r\n  </data>\r\n  <data name=\"7473\" xml:space=\"preserve\">\r\n    <value>Leatherwood Street</value>\r\n  </data>\r\n  <data name=\"7496\" xml:space=\"preserve\">\r\n    <value>Johnson Dr.</value>\r\n  </data>\r\n  <data name=\"75\" xml:space=\"preserve\">\r\n    <value>West Stonybrook Rd.</value>\r\n  </data>\r\n  <data name=\"7501\" xml:space=\"preserve\">\r\n    <value>Dogwood Ave.</value>\r\n  </data>\r\n  <data name=\"7509\" xml:space=\"preserve\">\r\n    <value>Atlantic Drive</value>\r\n  </data>\r\n  <data name=\"751\" xml:space=\"preserve\">\r\n    <value>Yukon St.</value>\r\n  </data>\r\n  <data name=\"7525\" xml:space=\"preserve\">\r\n    <value>Broad Street</value>\r\n  </data>\r\n  <data name=\"7537\" xml:space=\"preserve\">\r\n    <value>Devon Road</value>\r\n  </data>\r\n  <data name=\"7545\" xml:space=\"preserve\">\r\n    <value>Westminster Circle</value>\r\n  </data>\r\n  <data name=\"7546\" xml:space=\"preserve\">\r\n    <value>Bridgeton Ave.</value>\r\n  </data>\r\n  <data name=\"7556\" xml:space=\"preserve\">\r\n    <value>Arlington St.</value>\r\n  </data>\r\n  <data name=\"756\" xml:space=\"preserve\">\r\n    <value>Kirkland St.</value>\r\n  </data>\r\n  <data name=\"7565\" xml:space=\"preserve\">\r\n    <value>Pheasant Dr.</value>\r\n  </data>\r\n  <data name=\"76\" xml:space=\"preserve\">\r\n    <value>Foster St.</value>\r\n  </data>\r\n  <data name=\"761\" xml:space=\"preserve\">\r\n    <value>Acacia St.</value>\r\n  </data>\r\n  <data name=\"7610\" xml:space=\"preserve\">\r\n    <value>Illinois Street</value>\r\n  </data>\r\n  <data name=\"7616\" xml:space=\"preserve\">\r\n    <value>E. Magnolia St.</value>\r\n  </data>\r\n  <data name=\"7644\" xml:space=\"preserve\">\r\n    <value>Acacia Rd.</value>\r\n  </data>\r\n  <data name=\"7659\" xml:space=\"preserve\">\r\n    <value>Oakwood St.</value>\r\n  </data>\r\n  <data name=\"7666\" xml:space=\"preserve\">\r\n    <value>Poor House Street</value>\r\n  </data>\r\n  <data name=\"7682\" xml:space=\"preserve\">\r\n    <value>Pineknoll St.</value>\r\n  </data>\r\n  <data name=\"77\" xml:space=\"preserve\">\r\n    <value>Pendergast St.</value>\r\n  </data>\r\n  <data name=\"770\" xml:space=\"preserve\">\r\n    <value>Miller St.</value>\r\n  </data>\r\n  <data name=\"772\" xml:space=\"preserve\">\r\n    <value>NW. Third Dr.</value>\r\n  </data>\r\n  <data name=\"7722\" xml:space=\"preserve\">\r\n    <value>Lancaster St.</value>\r\n  </data>\r\n  <data name=\"7729\" xml:space=\"preserve\">\r\n    <value>Rockwell Ave.</value>\r\n  </data>\r\n  <data name=\"7752\" xml:space=\"preserve\">\r\n    <value>San Pablo Lane</value>\r\n  </data>\r\n  <data name=\"7756\" xml:space=\"preserve\">\r\n    <value>East Ivy Street</value>\r\n  </data>\r\n  <data name=\"7764\" xml:space=\"preserve\">\r\n    <value>Homestead Dr.</value>\r\n  </data>\r\n  <data name=\"777\" xml:space=\"preserve\">\r\n    <value>Roberts Lane</value>\r\n  </data>\r\n  <data name=\"7786\" xml:space=\"preserve\">\r\n    <value>Redwood Ave.</value>\r\n  </data>\r\n  <data name=\"7796\" xml:space=\"preserve\">\r\n    <value>Brickyard St.</value>\r\n  </data>\r\n  <data name=\"781\" xml:space=\"preserve\">\r\n    <value>Jockey Hollow Avenue</value>\r\n  </data>\r\n  <data name=\"7836\" xml:space=\"preserve\">\r\n    <value>E. Sheffield Ave.</value>\r\n  </data>\r\n  <data name=\"7858\" xml:space=\"preserve\">\r\n    <value>Cooper St.</value>\r\n  </data>\r\n  <data name=\"786\" xml:space=\"preserve\">\r\n    <value>East Division Ave.</value>\r\n  </data>\r\n  <data name=\"7863\" xml:space=\"preserve\">\r\n    <value>Smoky Hollow St.</value>\r\n  </data>\r\n  <data name=\"7911\" xml:space=\"preserve\">\r\n    <value>Old York St.</value>\r\n  </data>\r\n  <data name=\"792\" xml:space=\"preserve\">\r\n    <value>New Dr.</value>\r\n  </data>\r\n  <data name=\"7930\" xml:space=\"preserve\">\r\n    <value>Cherry Hill Dr.</value>\r\n  </data>\r\n  <data name=\"7937\" xml:space=\"preserve\">\r\n    <value>Jockey Hollow Lane</value>\r\n  </data>\r\n  <data name=\"794\" xml:space=\"preserve\">\r\n    <value>Green St.</value>\r\n  </data>\r\n  <data name=\"795\" xml:space=\"preserve\">\r\n    <value>Corona St.</value>\r\n  </data>\r\n  <data name=\"7957\" xml:space=\"preserve\">\r\n    <value>Sussex Drive</value>\r\n  </data>\r\n  <data name=\"798\" xml:space=\"preserve\">\r\n    <value>East Street</value>\r\n  </data>\r\n  <data name=\"8\" xml:space=\"preserve\">\r\n    <value>Thorne Road</value>\r\n  </data>\r\n  <data name=\"80\" xml:space=\"preserve\">\r\n    <value>Princess Lane</value>\r\n  </data>\r\n  <data name=\"8002\" xml:space=\"preserve\">\r\n    <value>Maiden St.</value>\r\n  </data>\r\n  <data name=\"8008\" xml:space=\"preserve\">\r\n    <value>Philmont Street</value>\r\n  </data>\r\n  <data name=\"8009\" xml:space=\"preserve\">\r\n    <value>Hawthorne Lane</value>\r\n  </data>\r\n  <data name=\"801\" xml:space=\"preserve\">\r\n    <value>Depot Drive</value>\r\n  </data>\r\n  <data name=\"802\" xml:space=\"preserve\">\r\n    <value>Sunnyslope Road</value>\r\n  </data>\r\n  <data name=\"8026\" xml:space=\"preserve\">\r\n    <value>Armstrong Street</value>\r\n  </data>\r\n  <data name=\"8079\" xml:space=\"preserve\">\r\n    <value>Hilldale Ave.</value>\r\n  </data>\r\n  <data name=\"8088\" xml:space=\"preserve\">\r\n    <value>Annadale Street</value>\r\n  </data>\r\n  <data name=\"81\" xml:space=\"preserve\">\r\n    <value>Edgewood Court</value>\r\n  </data>\r\n  <data name=\"810\" xml:space=\"preserve\">\r\n    <value>Mill Pond Dr.</value>\r\n  </data>\r\n  <data name=\"811\" xml:space=\"preserve\">\r\n    <value>West Columbia Dr.</value>\r\n  </data>\r\n  <data name=\"8118\" xml:space=\"preserve\">\r\n    <value>Chapel Drive</value>\r\n  </data>\r\n  <data name=\"812\" xml:space=\"preserve\">\r\n    <value>S. Andover Ave.</value>\r\n  </data>\r\n  <data name=\"813\" xml:space=\"preserve\">\r\n    <value>High Noon Ave.</value>\r\n  </data>\r\n  <data name=\"8141\" xml:space=\"preserve\">\r\n    <value>Glenlake Court</value>\r\n  </data>\r\n  <data name=\"8145\" xml:space=\"preserve\">\r\n    <value>Trenton Dr.</value>\r\n  </data>\r\n  <data name=\"818\" xml:space=\"preserve\">\r\n    <value>Hartford Street</value>\r\n  </data>\r\n  <data name=\"82\" xml:space=\"preserve\">\r\n    <value>S. Southampton St.</value>\r\n  </data>\r\n  <data name=\"8202\" xml:space=\"preserve\">\r\n    <value>Court Dr.</value>\r\n  </data>\r\n  <data name=\"8204\" xml:space=\"preserve\">\r\n    <value>Newport Lane</value>\r\n  </data>\r\n  <data name=\"8206\" xml:space=\"preserve\">\r\n    <value>Sherwood Dr.</value>\r\n  </data>\r\n  <data name=\"821\" xml:space=\"preserve\">\r\n    <value>Pine Ave.</value>\r\n  </data>\r\n  <data name=\"8218\" xml:space=\"preserve\">\r\n    <value>Forest St.</value>\r\n  </data>\r\n  <data name=\"822\" xml:space=\"preserve\">\r\n    <value>South Beech Street</value>\r\n  </data>\r\n  <data name=\"8266\" xml:space=\"preserve\">\r\n    <value>Shub Farm Street</value>\r\n  </data>\r\n  <data name=\"8292\" xml:space=\"preserve\">\r\n    <value>Hall St.</value>\r\n  </data>\r\n  <data name=\"8299\" xml:space=\"preserve\">\r\n    <value>N. East St.</value>\r\n  </data>\r\n  <data name=\"83\" xml:space=\"preserve\">\r\n    <value>Mill Drive</value>\r\n  </data>\r\n  <data name=\"8300\" xml:space=\"preserve\">\r\n    <value>School Ave.</value>\r\n  </data>\r\n  <data name=\"831\" xml:space=\"preserve\">\r\n    <value>Addison Street</value>\r\n  </data>\r\n  <data name=\"8313\" xml:space=\"preserve\">\r\n    <value>Green Lake Lane</value>\r\n  </data>\r\n  <data name=\"8328\" xml:space=\"preserve\">\r\n    <value>NW. Walnutwood St.</value>\r\n  </data>\r\n  <data name=\"8332\" xml:space=\"preserve\">\r\n    <value>Wellington Dr.</value>\r\n  </data>\r\n  <data name=\"835\" xml:space=\"preserve\">\r\n    <value>William Ave.</value>\r\n  </data>\r\n  <data name=\"8358\" xml:space=\"preserve\">\r\n    <value>East Proctor Street</value>\r\n  </data>\r\n  <data name=\"8372\" xml:space=\"preserve\">\r\n    <value>W. River Street</value>\r\n  </data>\r\n  <data name=\"84\" xml:space=\"preserve\">\r\n    <value>Hudson Street</value>\r\n  </data>\r\n  <data name=\"841\" xml:space=\"preserve\">\r\n    <value>East Gates Ave.</value>\r\n  </data>\r\n  <data name=\"842\" xml:space=\"preserve\">\r\n    <value>South Stonybrook Street</value>\r\n  </data>\r\n  <data name=\"8421\" xml:space=\"preserve\">\r\n    <value>Sulphur Springs Street</value>\r\n  </data>\r\n  <data name=\"8422\" xml:space=\"preserve\">\r\n    <value>Third Lane</value>\r\n  </data>\r\n  <data name=\"8424\" xml:space=\"preserve\">\r\n    <value>Campfire Dr.</value>\r\n  </data>\r\n  <data name=\"843\" xml:space=\"preserve\">\r\n    <value>Berkshire Ave.</value>\r\n  </data>\r\n  <data name=\"8434\" xml:space=\"preserve\">\r\n    <value>New Dr.</value>\r\n  </data>\r\n  <data name=\"8435\" xml:space=\"preserve\">\r\n    <value>Pulaski Street</value>\r\n  </data>\r\n  <data name=\"844\" xml:space=\"preserve\">\r\n    <value>Brook St.</value>\r\n  </data>\r\n  <data name=\"8482\" xml:space=\"preserve\">\r\n    <value>Longbranch St.</value>\r\n  </data>\r\n  <data name=\"85\" xml:space=\"preserve\">\r\n    <value>NW. Westminster Dr.</value>\r\n  </data>\r\n  <data name=\"851\" xml:space=\"preserve\">\r\n    <value>Golden Star Rd.</value>\r\n  </data>\r\n  <data name=\"8512\" xml:space=\"preserve\">\r\n    <value>Pin Oak Ave.</value>\r\n  </data>\r\n  <data name=\"8525\" xml:space=\"preserve\">\r\n    <value>Harvard Avenue</value>\r\n  </data>\r\n  <data name=\"853\" xml:space=\"preserve\">\r\n    <value>S. Cedarwood St.</value>\r\n  </data>\r\n  <data name=\"8531\" xml:space=\"preserve\">\r\n    <value>Primrose Court</value>\r\n  </data>\r\n  <data name=\"854\" xml:space=\"preserve\">\r\n    <value>Gartner St.</value>\r\n  </data>\r\n  <data name=\"8560\" xml:space=\"preserve\">\r\n    <value>West Proctor Court</value>\r\n  </data>\r\n  <data name=\"8579\" xml:space=\"preserve\">\r\n    <value>Buttonwood Rd.</value>\r\n  </data>\r\n  <data name=\"86\" xml:space=\"preserve\">\r\n    <value>10th Court</value>\r\n  </data>\r\n  <data name=\"8609\" xml:space=\"preserve\">\r\n    <value>East Littleton Dr.</value>\r\n  </data>\r\n  <data name=\"861\" xml:space=\"preserve\">\r\n    <value>Buckingham St.</value>\r\n  </data>\r\n  <data name=\"8637\" xml:space=\"preserve\">\r\n    <value>South 2nd St.</value>\r\n  </data>\r\n  <data name=\"8645\" xml:space=\"preserve\">\r\n    <value>SE. Annadale St.</value>\r\n  </data>\r\n  <data name=\"8660\" xml:space=\"preserve\">\r\n    <value>Argyle Drive</value>\r\n  </data>\r\n  <data name=\"8694\" xml:space=\"preserve\">\r\n    <value>Smith Rd.</value>\r\n  </data>\r\n  <data name=\"87\" xml:space=\"preserve\">\r\n    <value>Hillside Drive</value>\r\n  </data>\r\n  <data name=\"870\" xml:space=\"preserve\">\r\n    <value>Sunbeam St.</value>\r\n  </data>\r\n  <data name=\"8701\" xml:space=\"preserve\">\r\n    <value>Winding Way Drive</value>\r\n  </data>\r\n  <data name=\"871\" xml:space=\"preserve\">\r\n    <value>Briarwood Dr.</value>\r\n  </data>\r\n  <data name=\"872\" xml:space=\"preserve\">\r\n    <value>Poor House Dr.</value>\r\n  </data>\r\n  <data name=\"873\" xml:space=\"preserve\">\r\n    <value>Campfire Ave.</value>\r\n  </data>\r\n  <data name=\"8731\" xml:space=\"preserve\">\r\n    <value>Sage Court</value>\r\n  </data>\r\n  <data name=\"874\" xml:space=\"preserve\">\r\n    <value>Lake View St.</value>\r\n  </data>\r\n  <data name=\"8741\" xml:space=\"preserve\">\r\n    <value>Ohio St.</value>\r\n  </data>\r\n  <data name=\"8742\" xml:space=\"preserve\">\r\n    <value>Summit Street</value>\r\n  </data>\r\n  <data name=\"8774\" xml:space=\"preserve\">\r\n    <value>Pennington Drive</value>\r\n  </data>\r\n  <data name=\"8778\" xml:space=\"preserve\">\r\n    <value>Fairview Street</value>\r\n  </data>\r\n  <data name=\"8786\" xml:space=\"preserve\">\r\n    <value>Arnold Street</value>\r\n  </data>\r\n  <data name=\"8790\" xml:space=\"preserve\">\r\n    <value>White St.</value>\r\n  </data>\r\n  <data name=\"8794\" xml:space=\"preserve\">\r\n    <value>Hillside St.</value>\r\n  </data>\r\n  <data name=\"88\" xml:space=\"preserve\">\r\n    <value>Union Ave.</value>\r\n  </data>\r\n  <data name=\"881\" xml:space=\"preserve\">\r\n    <value>Pineknoll Road</value>\r\n  </data>\r\n  <data name=\"8811\" xml:space=\"preserve\">\r\n    <value>Roehampton Dr.</value>\r\n  </data>\r\n  <data name=\"882\" xml:space=\"preserve\">\r\n    <value>South Peachtree St.</value>\r\n  </data>\r\n  <data name=\"8857\" xml:space=\"preserve\">\r\n    <value>Tailwater St.</value>\r\n  </data>\r\n  <data name=\"886\" xml:space=\"preserve\">\r\n    <value>West Miller Ave.</value>\r\n  </data>\r\n  <data name=\"8865\" xml:space=\"preserve\">\r\n    <value>Schoolhouse Lane</value>\r\n  </data>\r\n  <data name=\"89\" xml:space=\"preserve\">\r\n    <value>Center St.</value>\r\n  </data>\r\n  <data name=\"890\" xml:space=\"preserve\">\r\n    <value>Pine Drive</value>\r\n  </data>\r\n  <data name=\"891\" xml:space=\"preserve\">\r\n    <value>Oak Meadow Court</value>\r\n  </data>\r\n  <data name=\"8910\" xml:space=\"preserve\">\r\n    <value>Creekside Street</value>\r\n  </data>\r\n  <data name=\"892\" xml:space=\"preserve\">\r\n    <value>Ramblewood Ave.</value>\r\n  </data>\r\n  <data name=\"8927\" xml:space=\"preserve\">\r\n    <value>Rockledge Street</value>\r\n  </data>\r\n  <data name=\"893\" xml:space=\"preserve\">\r\n    <value>Mechanic Ave.</value>\r\n  </data>\r\n  <data name=\"8944\" xml:space=\"preserve\">\r\n    <value>Cactus Street</value>\r\n  </data>\r\n  <data name=\"896\" xml:space=\"preserve\">\r\n    <value>Creek Ave.</value>\r\n  </data>\r\n  <data name=\"8963\" xml:space=\"preserve\">\r\n    <value>Birch Hill Dr.</value>\r\n  </data>\r\n  <data name=\"8966\" xml:space=\"preserve\">\r\n    <value>N. Wall St.</value>\r\n  </data>\r\n  <data name=\"8968\" xml:space=\"preserve\">\r\n    <value>Westport St.</value>\r\n  </data>\r\n  <data name=\"897\" xml:space=\"preserve\">\r\n    <value>Greystone Lane</value>\r\n  </data>\r\n  <data name=\"9\" xml:space=\"preserve\">\r\n    <value>Golf St.</value>\r\n  </data>\r\n  <data name=\"90\" xml:space=\"preserve\">\r\n    <value>W. Bedford Lane</value>\r\n  </data>\r\n  <data name=\"9005\" xml:space=\"preserve\">\r\n    <value>Green St.</value>\r\n  </data>\r\n  <data name=\"901\" xml:space=\"preserve\">\r\n    <value>Pilgrim Road</value>\r\n  </data>\r\n  <data name=\"902\" xml:space=\"preserve\">\r\n    <value>Dogwood Road</value>\r\n  </data>\r\n  <data name=\"9021\" xml:space=\"preserve\">\r\n    <value>Oklahoma Ave.</value>\r\n  </data>\r\n  <data name=\"9022\" xml:space=\"preserve\">\r\n    <value>S. Princess Lane</value>\r\n  </data>\r\n  <data name=\"903\" xml:space=\"preserve\">\r\n    <value>West Court</value>\r\n  </data>\r\n  <data name=\"9033\" xml:space=\"preserve\">\r\n    <value>El Dorado Circle</value>\r\n  </data>\r\n  <data name=\"904\" xml:space=\"preserve\">\r\n    <value>S. Birchpond St.</value>\r\n  </data>\r\n  <data name=\"9060\" xml:space=\"preserve\">\r\n    <value>Country Club Dr.</value>\r\n  </data>\r\n  <data name=\"91\" xml:space=\"preserve\">\r\n    <value>East Lane</value>\r\n  </data>\r\n  <data name=\"911\" xml:space=\"preserve\">\r\n    <value>James Rd.</value>\r\n  </data>\r\n  <data name=\"9119\" xml:space=\"preserve\">\r\n    <value>W. Buttonwood St.</value>\r\n  </data>\r\n  <data name=\"9121\" xml:space=\"preserve\">\r\n    <value>S. Bridge Road</value>\r\n  </data>\r\n  <data name=\"9170\" xml:space=\"preserve\">\r\n    <value>Smith Court</value>\r\n  </data>\r\n  <data name=\"9188\" xml:space=\"preserve\">\r\n    <value>E. Thompson Ave.</value>\r\n  </data>\r\n  <data name=\"92\" xml:space=\"preserve\">\r\n    <value>Marshall Dr.</value>\r\n  </data>\r\n  <data name=\"9205\" xml:space=\"preserve\">\r\n    <value>Boston St.</value>\r\n  </data>\r\n  <data name=\"921\" xml:space=\"preserve\">\r\n    <value>East Border St.</value>\r\n  </data>\r\n  <data name=\"9218\" xml:space=\"preserve\">\r\n    <value>Pennsylvania St.</value>\r\n  </data>\r\n  <data name=\"922\" xml:space=\"preserve\">\r\n    <value>Albany Rd.</value>\r\n  </data>\r\n  <data name=\"9225\" xml:space=\"preserve\">\r\n    <value>Peg Shop Dr.</value>\r\n  </data>\r\n  <data name=\"923\" xml:space=\"preserve\">\r\n    <value>Woodsman St.</value>\r\n  </data>\r\n  <data name=\"9240\" xml:space=\"preserve\">\r\n    <value>Marvon Dr.</value>\r\n  </data>\r\n  <data name=\"9276\" xml:space=\"preserve\">\r\n    <value>Pennington Ave.</value>\r\n  </data>\r\n  <data name=\"928\" xml:space=\"preserve\">\r\n    <value>N. Garden Drive</value>\r\n  </data>\r\n  <data name=\"93\" xml:space=\"preserve\">\r\n    <value>Young St.</value>\r\n  </data>\r\n  <data name=\"9305\" xml:space=\"preserve\">\r\n    <value>W. Newcastle Street</value>\r\n  </data>\r\n  <data name=\"9312\" xml:space=\"preserve\">\r\n    <value>Ridgeview Drive</value>\r\n  </data>\r\n  <data name=\"9319\" xml:space=\"preserve\">\r\n    <value>East Leeton Ridge St.</value>\r\n  </data>\r\n  <data name=\"933\" xml:space=\"preserve\">\r\n    <value>James Drive</value>\r\n  </data>\r\n  <data name=\"9331\" xml:space=\"preserve\">\r\n    <value>Shub Farm Street</value>\r\n  </data>\r\n  <data name=\"9337\" xml:space=\"preserve\">\r\n    <value>Market Street</value>\r\n  </data>\r\n  <data name=\"934\" xml:space=\"preserve\">\r\n    <value>Green Hill Street</value>\r\n  </data>\r\n  <data name=\"935\" xml:space=\"preserve\">\r\n    <value>Manhattan Court</value>\r\n  </data>\r\n  <data name=\"9353\" xml:space=\"preserve\">\r\n    <value>Applegate Court</value>\r\n  </data>\r\n  <data name=\"9359\" xml:space=\"preserve\">\r\n    <value>Gartner Dr.</value>\r\n  </data>\r\n  <data name=\"937\" xml:space=\"preserve\">\r\n    <value>Cherry Ave.</value>\r\n  </data>\r\n  <data name=\"94\" xml:space=\"preserve\">\r\n    <value>W. Highland Street</value>\r\n  </data>\r\n  <data name=\"9405\" xml:space=\"preserve\">\r\n    <value>Bellevue Drive</value>\r\n  </data>\r\n  <data name=\"941\" xml:space=\"preserve\">\r\n    <value>Brook Street</value>\r\n  </data>\r\n  <data name=\"9411\" xml:space=\"preserve\">\r\n    <value>Pulaski Dr.</value>\r\n  </data>\r\n  <data name=\"942\" xml:space=\"preserve\">\r\n    <value>Rosewood Dr.</value>\r\n  </data>\r\n  <data name=\"9436\" xml:space=\"preserve\">\r\n    <value>Walnut Street</value>\r\n  </data>\r\n  <data name=\"945\" xml:space=\"preserve\">\r\n    <value>Vernon Lane</value>\r\n  </data>\r\n  <data name=\"95\" xml:space=\"preserve\">\r\n    <value>Smith Store St.</value>\r\n  </data>\r\n  <data name=\"9503\" xml:space=\"preserve\">\r\n    <value>NW. Snake Hill Dr.</value>\r\n  </data>\r\n  <data name=\"9514\" xml:space=\"preserve\">\r\n    <value>Edgewood St.</value>\r\n  </data>\r\n  <data name=\"952\" xml:space=\"preserve\">\r\n    <value>Shipley St.</value>\r\n  </data>\r\n  <data name=\"953\" xml:space=\"preserve\">\r\n    <value>W. Spruce Ave.</value>\r\n  </data>\r\n  <data name=\"9538\" xml:space=\"preserve\">\r\n    <value>Cooper St.</value>\r\n  </data>\r\n  <data name=\"954\" xml:space=\"preserve\">\r\n    <value>Arnold St.</value>\r\n  </data>\r\n  <data name=\"9552\" xml:space=\"preserve\">\r\n    <value>Westminster Lane</value>\r\n  </data>\r\n  <data name=\"9560\" xml:space=\"preserve\">\r\n    <value>County St.</value>\r\n  </data>\r\n  <data name=\"9585\" xml:space=\"preserve\">\r\n    <value>Plymouth Street</value>\r\n  </data>\r\n  <data name=\"96\" xml:space=\"preserve\">\r\n    <value>Euclid Street</value>\r\n  </data>\r\n  <data name=\"9624\" xml:space=\"preserve\">\r\n    <value>Vernon Lane</value>\r\n  </data>\r\n  <data name=\"9635\" xml:space=\"preserve\">\r\n    <value>Griffin Lane</value>\r\n  </data>\r\n  <data name=\"9699\" xml:space=\"preserve\">\r\n    <value>Bridgeton Street</value>\r\n  </data>\r\n  <data name=\"97\" xml:space=\"preserve\">\r\n    <value>Glen Creek Street</value>\r\n  </data>\r\n  <data name=\"970\" xml:space=\"preserve\">\r\n    <value>NE. Pin Oak Ave.</value>\r\n  </data>\r\n  <data name=\"9704\" xml:space=\"preserve\">\r\n    <value>Lakeview Circle</value>\r\n  </data>\r\n  <data name=\"9719\" xml:space=\"preserve\">\r\n    <value>San Juan St.</value>\r\n  </data>\r\n  <data name=\"978\" xml:space=\"preserve\">\r\n    <value>Andover St.</value>\r\n  </data>\r\n  <data name=\"98\" xml:space=\"preserve\">\r\n    <value>Snake Hill Avenue</value>\r\n  </data>\r\n  <data name=\"981\" xml:space=\"preserve\">\r\n    <value>West Harrison St.</value>\r\n  </data>\r\n  <data name=\"9827\" xml:space=\"preserve\">\r\n    <value>S. Bridgeton Ave.</value>\r\n  </data>\r\n  <data name=\"983\" xml:space=\"preserve\">\r\n    <value>Durham Avenue</value>\r\n  </data>\r\n  <data name=\"9864\" xml:space=\"preserve\">\r\n    <value>W. Lantern Ave.</value>\r\n  </data>\r\n  <data name=\"9876\" xml:space=\"preserve\">\r\n    <value>Forest Court</value>\r\n  </data>\r\n  <data name=\"9887\" xml:space=\"preserve\">\r\n    <value>Oak Meadow Street</value>\r\n  </data>\r\n  <data name=\"9893\" xml:space=\"preserve\">\r\n    <value>Third St.</value>\r\n  </data>\r\n  <data name=\"99\" xml:space=\"preserve\">\r\n    <value>Amherst St.</value>\r\n  </data>\r\n  <data name=\"990\" xml:space=\"preserve\">\r\n    <value>North Surrey Drive</value>\r\n  </data>\r\n  <data name=\"9904\" xml:space=\"preserve\">\r\n    <value>S. Beech Road</value>\r\n  </data>\r\n  <data name=\"991\" xml:space=\"preserve\">\r\n    <value>W. Grant St.</value>\r\n  </data>\r\n  <data name=\"992\" xml:space=\"preserve\">\r\n    <value>Baker Road</value>\r\n  </data>\r\n  <data name=\"993\" xml:space=\"preserve\">\r\n    <value>2nd Lane</value>\r\n  </data>\r\n  <data name=\"9933\" xml:space=\"preserve\">\r\n    <value>East Rock Creek St.</value>\r\n  </data>\r\n  <data name=\"994\" xml:space=\"preserve\">\r\n    <value>Birch Hill St.</value>\r\n  </data>\r\n  <data name=\"995\" xml:space=\"preserve\">\r\n    <value>6th Drive</value>\r\n  </data>\r\n  <data name=\"9981\" xml:space=\"preserve\">\r\n    <value>Boston Drive</value>\r\n  </data>\r\n  <data name=\"9999\" xml:space=\"preserve\">\r\n    <value>La Sierra Ave.</value>\r\n  </data>\r\n</root>","Address":{"HouseNumber":"161","Street":"W. Green Lake Ave.","City":"Jockey Hollow Avenue","PostalCode":" NY 12203"}},{"Name":"Jeffrey","Surname":"Mcneil","Address":{"HouseNumber":"166","Street":"Glenholme Street","City":"Airport St.","PostalCode":" MT 59701"}},{"Name":"Paulina","Surname":"Ruiz","Address":{"HouseNumber":"151","Street":"High Ridge Street","City":"Devon Road","PostalCode":" CT 06082"}},{"Name":"Deborah","Surname":"Nichols","Address":{"HouseNumber":"157","Street":"West Edgefield Dr.","City":"Devon St.1","PostalCode":" NJ 07032"}},{"Name":"Delaney","Surname":"Velazquez","Address":{"HouseNumber":"156","Street":"Mayfield Drive","City":"W. Roehampton Circle","PostalCode":" CT 06492"}},{"Name":"Jameson","Surname":"Hutchinson","Address":{"HouseNumber":"105","Street":"Livingston Drive","City":"Ramblewood Ave.","PostalCode":" IL 60030"}},{"Name":"Jamison","Surname":"Macias","Address":{"HouseNumber":"100","Street":"Corona Street","City":"Miller St.","PostalCode":" TN 38501"}},{"Name":"Jaliyah","Surname":"Palmer","Address":{"HouseNumber":"101","Street":"Green Hill Dr.","City":"West Lane","PostalCode":" NC 28079"}},{"Name":"Janelle","Surname":"Avila","Address":{"HouseNumber":"102","Street":"Windfall St.","City":"Tailwater St.","PostalCode":" MA 02132"}},{"Name":"Janessa","Surname":"Pope","Address":{"HouseNumber":"172","Street":"Branch Drive","City":"Hartford Street","PostalCode":" NJ 08054"}},{"Name":"Destiny","Surname":"Carson","Address":{"HouseNumber":"171","Street":"W. Franklin Lane","City":"Honey Creek Street","PostalCode":" VA 23703"}},{"Name":"Desirae","Surname":"Bernard","Address":{"HouseNumber":"170","Street":"Harrison St.","City":"Oak Meadow Street","PostalCode":" FL 32503"}},{"Name":"Jackson","Surname":"Pugh","Address":{"HouseNumber":"125","Street":"E. Belmont St.","City":"Ketch Harbour Ave.","PostalCode":" NY 11795"}},{"Name":"Jaylene","Surname":"Bean","Address":{"HouseNumber":"122","Street":"Ketch Harbour Ave.","City":"Ivy Lane","PostalCode":" CA 95127"}},{"Name":"Jayleen","Surname":"Buckley","Address":{"HouseNumber":"123","Street":"Wood St.","City":"South Stonybrook Street","PostalCode":" AL 36532"}},{"Name":"Jazlynn","Surname":"Crane","Address":{"HouseNumber":"121","Street":"County St.","City":"Illinois Rd.","PostalCode":" CT 06790"}},{"Name":"Lucille1","Surname":"Vaughan","Address":{"HouseNumber":"115","Street":"Colonial St.","City":"Arlington Dr.","PostalCode":" MD 21206"}},{"Name":"Chelsea","Surname":"Brennan","Address":{"HouseNumber":"114","Street":"Longbranch Court","City":"Arlington St.","PostalCode":" CA 92831"}},{"Name":"Jonathon1","Surname":"House","Address":{"HouseNumber":"110","Street":"Manor Court","City":"Galvin Court","PostalCode":" OH 44691"}},{"Name":"Franklin","Surname":"Leonard","Address":{"HouseNumber":"118","Street":"Shub Farm Street","City":"Glenholme Street","PostalCode":" CA 92236"}},{"Name":"Emmett1","Surname":"Hays","Address":{"HouseNumber":"132","Street":"Pendergast Rd.","City":"Hanover Street","PostalCode":" NY 10598"}},{"Name":"Elliana","Surname":"Frey","Address":{"HouseNumber":"187","Street":"Primrose St.","City":"St Margarets Street","PostalCode":" CT 06074"}},{"Name":"Trinity1","Surname":"Nunez","Address":{"HouseNumber":"181","Street":"Paris Hill Dr.","City":"Edgewood St.","PostalCode":" MA 02124"}},{"Name":"Trinity2","Surname":"Yang","Address":{"HouseNumber":"194","Street":"George Street","City":"Pilgrim Dr.","PostalCode":" TX 76901"}},{"Name":"Octavio","Surname":"Ali","Address":{"HouseNumber":"191","Street":"Devon St.","City":"Primrose St.","PostalCode":" CT 06033"}},{"Name":"Eve","Surname":"Chung","Address":{"HouseNumber":"192","Street":"Cypress St.","City":"West Proctor Court","PostalCode":" FL 32533"}},{"Name":"Gia","Surname":"Lyons","Address":{"HouseNumber":"261","Street":"NE. Lafayette Avenue","City":"Pennington Street","PostalCode":" NY 14450"}},{"Name":"Ivy","Surname":"Vasquez","Address":{"HouseNumber":"271","Street":"Vale St.","City":"Winding Way Drive","PostalCode":" SC 29501"}},{"Name":"Noe","Surname":"Dunlap","Address":{"HouseNumber":"272","Street":"West Pleasant Lane","City":"N. East St.","PostalCode":" MI 48706"}},{"Name":"Lia","Surname":"Castaneda","Address":{"HouseNumber":"273","Street":"Paris Hill Dr.","City":"Washington Street","PostalCode":" TN 37643"}},{"Name":"Lea","Surname":"Cook","Address":{"HouseNumber":"278","Street":"River St.","City":"Oakwood St.","PostalCode":" MD 20772"}},{"Name":"Jax","Surname":"Collier","Address":{"HouseNumber":"279","Street":"Clinton Dr.","City":"School Ave.","PostalCode":" PA 19355"}},{"Name":"Jay","Surname":"Hampton","Address":{"HouseNumber":"242","Street":"Randall Mill Road","City":"Addison St.","PostalCode":" IL 60089"}},{"Name":"Van","Surname":"Barrett","Address":{"HouseNumber":"241","Street":"Mayfield Dr.","City":"Briarwood Dr.","PostalCode":" VA 20175"}},{"Name":"Rex","Surname":"Vazquez","Address":{"HouseNumber":"245","Street":"Young St.","City":"Sherwood Dr.","PostalCode":" IL 60053"}},{"Name":"Eddie","Surname":"Herman","Address":{"HouseNumber":"255","Street":"Lilac Rd.","City":"Bay Court","PostalCode":" AR 72209"}},{"Name":"Edwin","Surname":"Morse","Address":{"HouseNumber":"227","Street":"Devon St.","City":"S. Princess Lane","PostalCode":" CA 92220"}},{"Name":"Elena","Surname":"Santos","Address":{"HouseNumber":"221","Street":"Galvin Court","City":"Newport Lane","PostalCode":" AR 71730"}},{"Name":"Erika","Surname":"May","Address":{"HouseNumber":"223","Street":"Arlington Dr.","City":"Wild Horse Street","PostalCode":" MD 21740"}},{"Name":"Erick","Surname":"Bowman","Address":{"HouseNumber":"234","Street":"Wild Horse Lane","City":"South Lawrence Drive","PostalCode":" GA 30223"}},{"Name":"Ethan","Surname":"Booker","Address":{"HouseNumber":"237","Street":"W. Marsh Circle","City":"Pheasant Street1","PostalCode":" MA 01826"}},{"Name":"Aedan","Surname":"Leach","Address":{"HouseNumber":"230","Street":"East Hill Street","City":"Pheasant Street2","PostalCode":" MA 02360"}},{"Name":"Abbey","Surname":"Odom","Address":{"HouseNumber":"231","Street":"Locust Ave.","City":"East Street","PostalCode":" GA 31061"}},{"Name":"Abbie","Surname":"Porter","Address":{"HouseNumber":"232","Street":"Country Club St.","City":"Carpenter Court","PostalCode":" MN 55372"}},{"Name":"Anne1","Surname":"Manning","Address":{"HouseNumber":"233","Street":"Windfall Dr.","City":"Pin Oak St.","PostalCode":" NY 11762"}},{"Name":"Anne2","Surname":"Flowers","Address":{"HouseNumber":"238","Street":"Illinois Rd.","City":"Beach Road","PostalCode":" NC 27529"}},{"Name":"Anna1","Surname":"Obrien","Address":{"HouseNumber":"201","Street":"William St.","City":"Yukon St.","PostalCode":" MD 20743"}},{"Name":"Annie","Surname":"Lee","Address":{"HouseNumber":"200","Street":"N. Pennsylvania Drive","City":"W. Spruce Ave.","PostalCode":" FL 32127"}},{"Name":"Angel","Surname":"Durham","Address":{"HouseNumber":"209","Street":"W. Gonzales Street","City":"Mill Pond Dr.","PostalCode":" WA 98037"}},{"Name":"Amina","Surname":"Hanna","Address":{"HouseNumber":"208","Street":"Surrey Dr.","City":"Brook Street","PostalCode":" IN 46410"}},{"Name":"Amara","Surname":"Hicks","Address":{"HouseNumber":"216","Street":"Cherry Ave.","City":"NW. Walnutwood St.","PostalCode":" CT 06109"}},{"Name":"Amare","Surname":"Esparza","Address":{"HouseNumber":"210","Street":"Pennington Court","City":"Sulphur Springs Street","PostalCode":" NH 03054"}},{"Name":"Aliza","Surname":"Brennan","Address":{"HouseNumber":"219","Street":"4th St.","City":"Albany St.","PostalCode":" NJ 08701"}},{"Name":"Alexa","Surname":"Glover","Address":{"HouseNumber":"288","Street":"NW. Main Court","City":"Albany Rd.","PostalCode":" IA 52804"}},{"Name":"Aisha","Surname":"Noble","Address":{"HouseNumber":"286","Street":"N. Sulphur Springs St.","City":"Gulf Street","PostalCode":" OH 43512"}},{"Name":"Avery","Surname":"Perkins","Address":{"HouseNumber":"298","Street":"W. Swanson Rd.","City":"San Pablo Lane","PostalCode":" CO 80003"}},{"Name":"Aspen","Surname":"Delacruz","Address":{"HouseNumber":"363","Street":"Clay Lane","City":"Surrey Dr.","PostalCode":" NJ 07109"}},{"Name":"Arjun","Surname":"Miles","Address":{"HouseNumber":"341","Street":"Whitemarsh Lane","City":"Durham Drive","PostalCode":" FL 32159"}},{"Name":"Aydin","Surname":"Reeves","Address":{"HouseNumber":"344","Street":"Orange St.","City":"Carriage Ave.","PostalCode":" MN 55987"}},{"Name":"Aydan","Surname":"Nixon","Address":{"HouseNumber":"371","Street":"Cypress Ave.","City":"Sleepy Hollow St.","PostalCode":" NJ 08865"}},{"Name":"Frank","Surname":"Flowers","Address":{"HouseNumber":"378","Street":"Maple Street","City":"South Newbridge St.","PostalCode":" FL 33009"}},{"Name":"Frida","Surname":"Mathews","Address":{"HouseNumber":"324","Street":"Leeton Ridge Court","City":"S. Cedarwood St.","PostalCode":" AL 36526"}},{"Name":"Gaige","Surname":"Terry","Address":{"HouseNumber":"325","Street":"Mountainview Street","City":"George Street","PostalCode":" GA 30188"}},{"Name":"Gauge","Surname":"Carey","Address":{"HouseNumber":"322","Street":"Wild Horse Dr.","City":"Peg Shop Dr.","PostalCode":" NH 03038"}},{"Name":"Glenn","Surname":"Stein","Address":{"HouseNumber":"353","Street":"Lake Forest Circle","City":"N. Wall St.","PostalCode":" CA 94580"}},{"Name":"Damon","Surname":"Jackson","Address":{"HouseNumber":"351","Street":"Middle River St.","City":"Strawberry Dr.","PostalCode":" TX 75115"}},{"Name":"Dalia","Surname":"David","Address":{"HouseNumber":"302","Street":"Carpenter Court","City":"Fifth Street","PostalCode":" CO 80241"}},{"Name":"Dale1","Surname":"Ingram","Address":{"HouseNumber":"303","Street":"Courtland Dr.","City":"Manor Court","PostalCode":" PA 15601"}},{"Name":"Devyn","Surname":"Acosta","Address":{"HouseNumber":"301","Street":"New Ave.","City":"Golden Star Rd.","PostalCode":" MI 48101"}},{"Name":"Deven","Surname":"Arellano","Address":{"HouseNumber":"308","Street":"Princeton Ave.","City":"John Ave.","PostalCode":" IL 60451"}},{"Name":"Donte","Surname":"Jensen","Address":{"HouseNumber":"309","Street":"Pennington Street","City":"Gregory Ave.","PostalCode":" NE 68107"}},{"Name":"Micah","Surname":"Howell","Address":{"HouseNumber":"332","Street":"Campfire Street","City":"Wellington Dr.","PostalCode":" NJ 08021"}},{"Name":"Maeve","Surname":"Mcgee","Address":{"HouseNumber":"339","Street":"South Ryan Street","City":"Main Dr.","PostalCode":" NY 11421"}},{"Name":"Macey","Surname":"Bullock","Address":{"HouseNumber":"338","Street":"West Foxrun St.","City":"Applegate Court","PostalCode":" CA 90274"}},{"Name":"Maxim","Surname":"Flynn","Address":{"HouseNumber":"316","Street":"E. Hartford Court","City":"NW. Main Court","PostalCode":" PA 19468"}},{"Name":"Mark1","Surname":"Pierce","Address":{"HouseNumber":"315","Street":"Bay Court","City":"Ketch Harbour St.","PostalCode":" IL 60426"}},{"Name":"Megan","Surname":"Proctor","Address":{"HouseNumber":"318","Street":"Prospect Street","City":"West Court","PostalCode":" IN 47401"}},{"Name":"Baron","Surname":"Pittman","Address":{"HouseNumber":"380","Street":"Durham Drive","City":"E. Hartford Court","PostalCode":" NY 11735"}},{"Name":"Billy","Surname":"Hahn","Address":{"HouseNumber":"396","Street":"Walt Whitman St.","City":"El Dorado Circle","PostalCode":" IL 60076"}},{"Name":"Blaze","Surname":"Shepard","Address":{"HouseNumber":"392","Street":"Glen Creek Ave.","City":"Logan St.","PostalCode":" UT 84067"}},{"Name":"Brynn","Surname":"Diaz","Address":{"HouseNumber":"886","Street":"West Miller Ave.","City":"Glen Creek Ave.","PostalCode":" IL 60453"}},{"Name":"Celia","Surname":"Mahoney","Address":{"HouseNumber":"881","Street":"Pineknoll Road","City":"Pilgrim Road","PostalCode":" FL 34952"}},{"Name":"Colby","Surname":"Carroll","Address":{"HouseNumber":"882","Street":"South Peachtree St.","City":"Marconi Drive1","PostalCode":" NY 11510"}},{"Name":"Corey","Surname":"Trevino","Address":{"HouseNumber":"896","Street":"Creek Ave.","City":"Bridgeton Ave.","PostalCode":" NJ 08742"}},{"Name":"Clara","Surname":"Christensen","Address":{"HouseNumber":"897","Street":"Greystone Lane","City":"Woodsman St.","PostalCode":" MD 21114"}},{"Name":"Cindy","Surname":"Waller","Address":{"HouseNumber":"890","Street":"Pine Drive","City":"Smith Court","PostalCode":" AL 36067"}},{"Name":"Chaim","Surname":"Hartman","Address":{"HouseNumber":"891","Street":"Oak Meadow Court","City":"Schoolhouse Lane","PostalCode":" MI 48124"}},{"Name":"Chaya","Surname":"Hensley","Address":{"HouseNumber":"892","Street":"Ramblewood Ave.","City":"Thomas Rd.","PostalCode":" IL 60010"}},{"Name":"Isaac","Surname":"Mccarty","Address":{"HouseNumber":"893","Street":"Mechanic Ave.","City":"Kirkland Drive","PostalCode":" CA 95050"}},{"Name":"Noemi","Surname":"Camacho","Address":{"HouseNumber":"841","Street":"East Gates Ave.","City":"West Clay Ave.","PostalCode":" MA 02072"}},{"Name":"Nora1","Surname":"Holmes","Address":{"HouseNumber":"843","Street":"Berkshire Ave.","City":"Harrison Street","PostalCode":" OH 44221"}},{"Name":"Naima","Surname":"Holloway","Address":{"HouseNumber":"842","Street":"South Stonybrook Street","City":"North Sherwood Lane","PostalCode":" NJ 08075"}},{"Name":"Nancy","Surname":"Daniel","Address":{"HouseNumber":"844","Street":"Brook St.","City":"Baker St.","PostalCode":" NC 27028"}},{"Name":"Nadia","Surname":"Gibbs","Address":{"HouseNumber":"851","Street":"Golden Star Rd.","City":"Fairview Street","PostalCode":" TX 76039"}},{"Name":"Nasir","Surname":"Obrien","Address":{"HouseNumber":"853","Street":"S. Cedarwood St.","City":"Fairway Court","PostalCode":" FL 34231"}},{"Name":"Nylah","Surname":"Bowman","Address":{"HouseNumber":"854","Street":"Gartner St.","City":"Country Club St.","PostalCode":" OH 44720"}},{"Name":"Oscar","Surname":"Rivas","Address":{"HouseNumber":"861","Street":"Buckingham St.","City":"Country Club Dr.","PostalCode":" FL 34698"}},{"Name":"Orion","Surname":"Petersen","Address":{"HouseNumber":"872","Street":"Poor House Dr.","City":"S. Virginia St.","PostalCode":" MA 02760"}},{"Name":"Liana","Surname":"Holder","Address":{"HouseNumber":"873","Street":"Campfire Ave.","City":"W. Grant St.","PostalCode":" IL 60004"}},{"Name":"Lilah","Surname":"Green","Address":{"HouseNumber":"870","Street":"Sunbeam St.","City":"NW. Westminster Dr.","PostalCode":" NY 11365"}},{"Name":"Livia","Surname":"Jarvis","Address":{"HouseNumber":"871","Street":"Briarwood Dr.","City":"Atlantic Drive","PostalCode":" AL 36301"}},{"Name":"Layla","Surname":"Frye","Address":{"HouseNumber":"874","Street":"Lake View St.","City":"E. Greenview Drive","PostalCode":" MD 21244"}},{"Name":"Layne","Surname":"Cooke","Address":{"HouseNumber":"801","Street":"Depot Drive","City":"East Hill Street","PostalCode":" GA 30134"}},{"Name":"Louis","Surname":"Bonilla","Address":{"HouseNumber":"802","Street":"Sunnyslope Road","City":"Pin Oak Ave.","PostalCode":" IA 51501"}},{"Name":"Lydia","Surname":"Carey","Address":{"HouseNumber":"818","Street":"Hartford Street","City":"Campfire Street","PostalCode":" TN 37076"}},{"Name":"Luna1","Surname":"Clarke","Address":{"HouseNumber":"810","Street":"Mill Pond Dr.","City":"West Columbia Dr.","PostalCode":" NY 13021"}},{"Name":"Madelynn","Surname":"Green","Address":{"HouseNumber":"811","Street":"West Columbia Dr.","City":"Cooper St.","PostalCode":" FL 33594"}},{"Name":"Jovan","Surname":"Pacheco","Address":{"HouseNumber":"812","Street":"S. Andover Ave.","City":"Gulf St.","PostalCode":" MT 59801"}},{"Name":"Jamar","Surname":"Bartlett","Address":{"HouseNumber":"813","Street":"High Noon Ave.","City":"Glenlake Court","PostalCode":" NY 11731"}},{"Name":"Jalen","Surname":"Richard","Address":{"HouseNumber":"822","Street":"South Beech Street","City":"Sunbeam St.","PostalCode":" PA 15401"}},{"Name":"Janet","Surname":"Allen","Address":{"HouseNumber":"821","Street":"Pine Ave.","City":"NE. Lafayette Avenue","PostalCode":" OH 44663"}},{"Name":"Jaida","Surname":"Donovan","Address":{"HouseNumber":"835","Street":"William Ave.","City":"Princeton Ave.","PostalCode":" CT 06851"}},{"Name":"Jaden","Surname":"Werner","Address":{"HouseNumber":"831","Street":"Addison Street","City":"W. Highland Street","PostalCode":" OH 44004"}},{"Name":"Jadyn","Surname":"Gutierrez","Address":{"HouseNumber":"981","Street":"West Harrison St.","City":"Manchester Ave.","PostalCode":" NY 11701"}},{"Name":"Jacey","Surname":"Villanueva","Address":{"HouseNumber":"983","Street":"Durham Avenue","City":"Shipley Street","PostalCode":" IN 47302"}},{"Name":"Jaron","Surname":"Fuentes","Address":{"HouseNumber":"995","Street":"6th Drive","City":"Wild Rose Ave.","PostalCode":" WI 54220"}},{"Name":"Kolby","Surname":"Donaldson","Address":{"HouseNumber":"994","Street":"Birch Hill St.","City":"Amerige Road","PostalCode":" CT 06514"}},{"Name":"Kiera","Surname":"Baxter","Address":{"HouseNumber":"991","Street":"W. Grant St.","City":"Applegate St.","PostalCode":" IL 60085"}},{"Name":"Kenny","Surname":"Shaw","Address":{"HouseNumber":"990","Street":"North Surrey Drive","City":"Blue Spring St.","PostalCode":" NY 11717"}},{"Name":"Keith","Surname":"Pittman","Address":{"HouseNumber":"993","Street":"2nd Lane","City":"NW. Snake Hill Dr.","PostalCode":" MI 48178"}},{"Name":"Kaiya","Surname":"Knight","Address":{"HouseNumber":"992","Street":"Baker Road","City":"W. River Street","PostalCode":" PA 17109"}},{"Name":"Kadin","Surname":"Moon","Address":{"HouseNumber":"941","Street":"Brook Street","City":"E. Sheffield Ave.","PostalCode":" IN 46375"}},{"Name":"Karma","Surname":"Summers","Address":{"HouseNumber":"942","Street":"Rosewood Dr.","City":"Wakehurst Street","PostalCode":" WI 53154"}},{"Name":"Kasey","Surname":"Brennan","Address":{"HouseNumber":"945","Street":"Vernon Lane","City":"Baker Road","PostalCode":" CA 93035"}},{"Name":"Kyson","Surname":"Yang","Address":{"HouseNumber":"953","Street":"W. Spruce Ave.","City":"Baker Lane","PostalCode":" KY 40356"}},{"Name":"Kyler","Surname":"Mccullough","Address":{"HouseNumber":"952","Street":"Shipley St.","City":"Baker Ave.","PostalCode":" MI 48239"}},{"Name":"Krish","Surname":"Dawson","Address":{"HouseNumber":"954","Street":"Arnold St.","City":"Paris Hill Rd.","PostalCode":" NJ 07652"}},{"Name":"Holly","Surname":"Pace","Address":{"HouseNumber":"904","Street":"S. Birchpond St.","City":"Paris Hill Dr.","PostalCode":" TN 37055"}},{"Name":"Hanna","Surname":"Escobar","Address":{"HouseNumber":"901","Street":"Pilgrim Road","City":"East Lane1","PostalCode":" NC 27909"}},{"Name":"Wayne","Surname":"Pierce","Address":{"HouseNumber":"902","Street":"Dogwood Road","City":"E. 1st St.","PostalCode":" SC 29576"}},{"Name":"Tripp","Surname":"Dyer","Address":{"HouseNumber":"903","Street":"West Court","City":"Maiden St.","PostalCode":" WI 54880"}},{"Name":"Tyree","Surname":"Cochran","Address":{"HouseNumber":"978","Street":"Andover St.","City":"S. South Court","PostalCode":" VA 24012"}},{"Name":"Tamia","Surname":"Stephenson","Address":{"HouseNumber":"970","Street":"NE. Pin Oak Ave.","City":"West Miller Ave.","PostalCode":" MA 01801"}},{"Name":"Talon","Surname":"Villarreal","Address":{"HouseNumber":"928","Street":"N. Garden Drive","City":"N. Garden Drive","PostalCode":" NJ 08401"}},{"Name":"Talia","Surname":"Singh","Address":{"HouseNumber":"922","Street":"Albany Rd.","City":"Brickyard St.","PostalCode":" TN 37601"}},{"Name":"Titus","Surname":"Pruitt","Address":{"HouseNumber":"923","Street":"Woodsman St.","City":"Philmont Street","PostalCode":" OH 45365"}},{"Name":"Tiana","Surname":"Dougherty","Address":{"HouseNumber":"921","Street":"East Border St.","City":"Cherry Ave.1","PostalCode":" NY 12601"}},{"Name":"Rylie","Surname":"Hatfield","Address":{"HouseNumber":"911","Street":"James Rd.","City":"Foster Street","PostalCode":" NY 13440"}},{"Name":"Ryder","Surname":"Valentine","Address":{"HouseNumber":"937","Street":"Cherry Ave.","City":"Armstrong Street","PostalCode":" IN 47711"}},{"Name":"Reese","Surname":"Yoder","Address":{"HouseNumber":"935","Street":"Manhattan Court","City":"Madison Rd.","PostalCode":" MD 21220"}},{"Name":"Reece","Surname":"Crane","Address":{"HouseNumber":"934","Street":"Green Hill Street","City":"Rosewood Dr.","PostalCode":" IN 47802"}},{"Name":"Regan","Surname":"Chavez","Address":{"HouseNumber":"933","Street":"James Drive","City":"Lancaster St.","PostalCode":" NJ 07024"}},{"Name":"Rene1","Surname":"Stark","Address":{"HouseNumber":"4011","Street":"West Park Rd.","City":"Mechanic Ave.","PostalCode":" MI 48042"}},{"Name":"Rayna","Surname":"Duran","Address":{"HouseNumber":"6111","Street":"Madison Rd.","City":"East Division Ave.","PostalCode":" NC 28303"}},{"Name":"Stacy","Surname":"Burke","Address":{"HouseNumber":"7213","Street":"York St.","City":"Brook Avenue","PostalCode":" CA 95060"}},{"Name":"Steve","Surname":"Compton","Address":{"HouseNumber":"7273","Street":"Pendergast St.","City":"E. Belmont St.","PostalCode":" IN 46201"}},{"Name":"Scott","Surname":"Dunn","Address":{"HouseNumber":"7291","Street":"S. Garfield Street","City":"Westport St.","PostalCode":" NJ 08527"}},{"Name":"Soren","Surname":"Ashley","Address":{"HouseNumber":"7292","Street":"Galvin Rd.","City":"Ann Avenue","PostalCode":" CO 80123"}},{"Name":"Sonny","Surname":"Mcneil","Address":{"HouseNumber":"7283","Street":"Longbranch Drive","City":"James Rd.","PostalCode":" NJ 08096"}},{"Name":"Sara1","Surname":"Burch","Address":{"HouseNumber":"7012","Street":"Strawberry Dr.","City":"Smoky Hollow St.","PostalCode":" NY 11520"}},{"Name":"Sanai","Surname":"Newton","Address":{"HouseNumber":"7011","Street":"Gregory Ave.","City":"Arnold Street","PostalCode":" IL 60107"}},{"Name":"Sammy","Surname":"Lucas","Address":{"HouseNumber":"7074","Street":"North Sherwood Lane","City":"Front Road","PostalCode":" MA 01420"}},{"Name":"Skyla","Surname":"Carroll","Address":{"HouseNumber":"7069","Street":"Fairway Court","City":"East Leeton Ridge St.","PostalCode":" MD 21144"}},{"Name":"Slade","Surname":"Manning","Address":{"HouseNumber":"7087","Street":"Wakehurst Street","City":"Corona St.","PostalCode":" FL 34786"}},{"Name":"Siena","Surname":"Rowland","Address":{"HouseNumber":"7316","Street":"Pierce St.","City":"Alderwood Street","PostalCode":" MA 01930"}},{"Name":"Peter","Surname":"Wilkerson","Address":{"HouseNumber":"7317","Street":"Bowman Ave.","City":"Argyle Drive","PostalCode":" MA 01760"}},{"Name":"Paul1","Surname":"Knapp","Address":{"HouseNumber":"7333","Street":"Sleepy Hollow St.","City":"West Park Rd.","PostalCode":" NC 27603"}},{"Name":"Paris","Surname":"Lambert","Address":{"HouseNumber":"7338","Street":"Pheasant Street","City":"S. River Ave.","PostalCode":" MI 48066"}},{"Name":"Dominic","Surname":"Ortiz","Address":{"HouseNumber":"7309","Street":"Blackburn Street","City":"Whitemarsh Lane","PostalCode":" MN 55379"}},{"Name":"Francisco","Surname":"Jones","Address":{"HouseNumber":"7359","Street":"Pheasant Street","City":"Wagon St.","PostalCode":" WI 53590"}},{"Name":"Jefferson","Surname":"Burns","Address":{"HouseNumber":"7659","Street":"Oakwood St.","City":"4th St.","PostalCode":" NJ 07631"}},{"Name":"Addisyn","Surname":"Hardin","Address":{"HouseNumber":"7644","Street":"Acacia Rd.","City":"Snake Hill Avenue","PostalCode":" FL 33028"}},{"Name":"Addison","Surname":"Salazar","Address":{"HouseNumber":"7666","Street":"Poor House Street","City":"Riverview Avenue","PostalCode":" NY 11361"}},{"Name":"Katherine","Surname":"Velazquez","Address":{"HouseNumber":"7616","Street":"E. Magnolia St.","City":"Forest Ave.1","PostalCode":" CA 90505"}},{"Name":"Adriana","Surname":"Webster","Address":{"HouseNumber":"7610","Street":"Illinois Street","City":"Forest Court","PostalCode":" GA 30736"}},{"Name":"Cristian","Surname":"Cohen","Address":{"HouseNumber":"7682","Street":"Pineknoll St.","City":"York St.","PostalCode":" PA 18102"}},{"Name":"Cynthia","Surname":"Christensen","Address":{"HouseNumber":"7130","Street":"Williams Drive","City":"Theatre Ave.","PostalCode":" MN 55303"}},{"Name":"Jonathon","Surname":"Massey","Address":{"HouseNumber":"7128","Street":"Edgefield Ave.","City":"North Hamilton Ave.","PostalCode":" IL 60120"}},{"Name":"Nathanial","Surname":"Haley","Address":{"HouseNumber":"7155","Street":"John Ave.","City":"County St.","PostalCode":" IL 60515"}},{"Name":"Monserrat","Surname":"Foley","Address":{"HouseNumber":"7196","Street":"Ann Avenue","City":"Market Street1","PostalCode":" MN 55068"}},{"Name":"Annabel","Surname":"Shepard","Address":{"HouseNumber":"7473","Street":"Leatherwood Street","City":"Trenton Drive1","PostalCode":" GA 30721"}},{"Name":"Aniyah1","Surname":"Hensley","Address":{"HouseNumber":"7455","Street":"Young Ave.","City":"SE. Annadale St.","PostalCode":" RI 02904"}},{"Name":"Felicity","Surname":"Alexander","Address":{"HouseNumber":"7425","Street":"Central Drive","City":"Orange St.","PostalCode":" PA 17036"}},{"Name":"Antonio","Surname":"Mitchell","Address":{"HouseNumber":"7426","Street":"Bowman Ave.","City":"West Pleasant Lane","PostalCode":" GA 30281"}},{"Name":"Emmanuel","Surname":"Carney","Address":{"HouseNumber":"7423","Street":"High Ridge Dr.","City":"Clinton Dr.","PostalCode":" NY 11801"}},{"Name":"Valerie","Surname":"Brock","Address":{"HouseNumber":"7416","Street":"Santa Clara Circle","City":"Mulberry Ave.","PostalCode":" NJ 08844"}},{"Name":"Allison","Surname":"Donaldson","Address":{"HouseNumber":"7496","Street":"Johnson Dr.","City":"Blackburn Avenue","PostalCode":" MS 39564"}},{"Name":"Alannah","Surname":"Irwin","Address":{"HouseNumber":"7752","Street":"San Pablo Lane","City":"East Thompson Drive","PostalCode":" FL 32259"}},{"Name":"Rodrigo1","Surname":"Macdonald","Address":{"HouseNumber":"7756","Street":"East Ivy Street","City":"Redwood Ave.","PostalCode":" GA 30269"}},{"Name":"Kayleigh","Surname":"Benjamin","Address":{"HouseNumber":"7764","Street":"Homestead Dr.","City":"Buckingham St.","PostalCode":" FL 32707"}},{"Name":"Oswaldo","Surname":"Rivera","Address":{"HouseNumber":"7722","Street":"Lancaster St.","City":"Cypress Ave.1","PostalCode":" OH 44070"}},{"Name":"Ainsley","Surname":"Burch","Address":{"HouseNumber":"7729","Street":"Rockwell Ave.","City":"Roehampton Dr.","PostalCode":" FL 33470"}},{"Name":"Clarissa","Surname":"Buckley","Address":{"HouseNumber":"7796","Street":"Brickyard St.","City":"Plymouth Street","PostalCode":" OH 44312"}},{"Name":"Reginald","Surname":"Delgado","Address":{"HouseNumber":"7786","Street":"Redwood Ave.","City":"Edgefield Ave.","PostalCode":" NJ 07860"}},{"Name":"Maurice1","Surname":"Hull","Address":{"HouseNumber":"7556","Street":"Arlington St.","City":"Lake Forest Circle","PostalCode":" CT 06010"}},{"Name":"Killian","Surname":"Haynes","Address":{"HouseNumber":"7565","Street":"Pheasant Dr.","City":"Harvard Avenue","PostalCode":" NY 11420"}},{"Name":"Kirsten","Surname":"Shannon","Address":{"HouseNumber":"7537","Street":"Devon Road","City":"Wild Horse Lane","PostalCode":" MI 49423"}},{"Name":"Maryjane","Surname":"Mcintosh","Address":{"HouseNumber":"7546","Street":"Bridgeton Ave.","City":"Cherry Ave.","PostalCode":" PA 17268"}},{"Name":"Marquise","Surname":"Curtis","Address":{"HouseNumber":"7545","Street":"Westminster Circle","City":"Cypress St.1","PostalCode":" IL 60621"}},{"Name":"Mariela1","Surname":"Stafford","Address":{"HouseNumber":"7525","Street":"Broad Street","City":"Cypress Ave.","PostalCode":" NJ 07002"}},{"Name":"Immanuel","Surname":"Cisneros","Address":{"HouseNumber":"7501","Street":"Dogwood Ave.","City":"Overlook Drive","PostalCode":" OH 43026"}},{"Name":"Valentino1","Surname":"Mckee","Address":{"HouseNumber":"7509","Street":"Atlantic Drive","City":"Hilldale Ave.","PostalCode":" GA 30605"}},{"Name":"Annalise","Surname":"Campbell","Address":{"HouseNumber":"7836","Street":"E. Sheffield Ave.","City":"N. Mayfair Lane","PostalCode":" TX 75126"}},{"Name":"Catherine1","Surname":"Allen","Address":{"HouseNumber":"7863","Street":"Smoky Hollow St.","City":"Acacia St.","PostalCode":" FL 33458"}},{"Name":"Lillian","Surname":"Hamilton","Address":{"HouseNumber":"7858","Street":"Cooper St.","City":"Acacia Rd.","PostalCode":" NY 11432"}},{"Name":"Arthur1","Surname":"Pruitt","Address":{"HouseNumber":"7930","Street":"Cherry Hill Dr.","City":"San Carlos Avenue","PostalCode":" MA 01851"}},{"Name":"Mikaela","Surname":"Mata","Address":{"HouseNumber":"7937","Street":"Jockey Hollow Lane","City":"Pennington Ave.","PostalCode":" NJ 07042"}},{"Name":"Kendall","Surname":"Gaines","Address":{"HouseNumber":"7911","Street":"Old York St.","City":"Princess Lane","PostalCode":" WA 98290"}},{"Name":"Kennedi","Surname":"Drake","Address":{"HouseNumber":"7957","Street":"Sussex Drive","City":"Center St.","PostalCode":" CT 06405"}},{"Name":"Kenzie1","Surname":"Norton","Address":{"HouseNumber":"1221","Street":"Pin Oak St.","City":"Pulaski Dr.","PostalCode":" NY 10002"}},{"Name":"Aracely","Surname":"Oconnell","Address":{"HouseNumber":"1211","Street":"Main Dr.","City":"Lyme Ave.","PostalCode":" PA 17543"}},{"Name":"Armando","Surname":"Gates","Address":{"HouseNumber":"1141","Street":"Clay Ave.","City":"Columbia St.","PostalCode":" NJ 08087"}},{"Name":"Keshawn","Surname":"Short","Address":{"HouseNumber":"1921","Street":"Alderwood Street","City":"North Surrey Drive","PostalCode":" MI 48348"}},{"Name":"Monique","Surname":"Paul","Address":{"HouseNumber":"2451","Street":"South Shadow Brook Street","City":"Manhattan Court","PostalCode":" WA 98801"}},{"Name":"Genevieve","Surname":"Haynes","Address":{"HouseNumber":"2881","Street":"Thomas Rd.","City":"Cardinal Street","PostalCode":" OH 45840"}},{"Name":"Kayleigh1","Surname":"Yang","Address":{"HouseNumber":"8857","Street":"Tailwater St.","City":"Lookout Drive","PostalCode":" NC 27502"}},{"Name":"Ryleigh","Surname":"Harrison","Address":{"HouseNumber":"8865","Street":"Schoolhouse Lane","City":"West Foxrun St.","PostalCode":" MD 21234"}},{"Name":"Kaleigh","Surname":"Jackson","Address":{"HouseNumber":"8811","Street":"Roehampton Dr.","City":"Gartner St.","PostalCode":" NJ 08861"}},{"Name":"Kaliyah","Surname":"Mcclure","Address":{"HouseNumber":"8944","Street":"Cactus Street","City":"Gartner Dr.","PostalCode":" NY 11414"}},{"Name":"Kaitlin","Surname":"Wall","Address":{"HouseNumber":"8963","Street":"Birch Hill Dr.","City":"Mill Drive","PostalCode":" IL 60201"}},{"Name":"Karina1","Surname":"Knapp","Address":{"HouseNumber":"8966","Street":"N. Wall St.","City":"Griffin Lane","PostalCode":" MA 01757"}},{"Name":"Kassidy","Surname":"Hatfield","Address":{"HouseNumber":"8968","Street":"Westport St.","City":"Hawthorne Lane","PostalCode":" TN 37830"}},{"Name":"Kathryn","Surname":"Floyd","Address":{"HouseNumber":"8927","Street":"Rockledge Street","City":"S. Bridge Road","PostalCode":" TN 37421"}},{"Name":"Katelyn","Surname":"Juarez","Address":{"HouseNumber":"8910","Street":"Creekside Street","City":"Theatre Street","PostalCode":" NY 12010"}},{"Name":"Anderson","Surname":"Mcneil","Address":{"HouseNumber":"8482","Street":"Longbranch St.","City":"Shub Farm Street1","PostalCode":" MI 49015"}},{"Name":"Makenna","Surname":"Hickman","Address":{"HouseNumber":"8422","Street":"Third Lane","City":"Shub Farm Street2","PostalCode":" NC 28358"}},{"Name":"Madison","Surname":"Durham","Address":{"HouseNumber":"8421","Street":"Sulphur Springs Street","City":"White St.","PostalCode":" IN 46123"}},{"Name":"Rebecca","Surname":"Hays","Address":{"HouseNumber":"8424","Street":"Campfire Dr.","City":"Eagle Street","PostalCode":" FL 32068"}},{"Name":"Rebekah","Surname":"Torres","Address":{"HouseNumber":"8434","Street":"New Dr.","City":"East Border St.","PostalCode":" NC 28645"}},{"Name":"Matthew","Surname":"Solomon","Address":{"HouseNumber":"8435","Street":"Pulaski Street","City":"Santa Clara Circle","PostalCode":" IL 60115"}},{"Name":"Regina1","Surname":"Ryan","Address":{"HouseNumber":"8525","Street":"Harvard Avenue","City":"Pine Ave.","PostalCode":" PA 17325"}},{"Name":"Maurice","Surname":"Hudson","Address":{"HouseNumber":"8512","Street":"Pin Oak Ave.","City":"W. Swanson Rd.","PostalCode":" PA 19464"}},{"Name":"Marquis","Surname":"Rodriguez","Address":{"HouseNumber":"8531","Street":"Primrose Court","City":"Leatherwood Street","PostalCode":" NJ 07103"}},{"Name":"Marques","Surname":"Ruiz","Address":{"HouseNumber":"8560","Street":"West Proctor Court","City":"Peninsula Drive","PostalCode":" FL 34221"}},{"Name":"Marisol","Surname":"Mccarthy","Address":{"HouseNumber":"8579","Street":"Buttonwood Rd.","City":"Jockey Hollow Lane","PostalCode":" SC 29526"}},{"Name":"Maritza","Surname":"Mayer","Address":{"HouseNumber":"8694","Street":"Smith Rd.","City":"W. Armstrong St.","PostalCode":" IL 60440"}},{"Name":"Mariela","Surname":"Powell","Address":{"HouseNumber":"8637","Street":"South 2nd St.","City":"Edgewood Court","PostalCode":" TN 37379"}},{"Name":"Yaretzi","Surname":"Patrick","Address":{"HouseNumber":"8609","Street":"East Littleton Dr.","City":"W. Buttonwood St.","PostalCode":" CA 91387"}},{"Name":"Yasmine","Surname":"Wright","Address":{"HouseNumber":"8660","Street":"Argyle Drive","City":"N. Sulphur Springs St.","PostalCode":" MD 20735"}},{"Name":"Mohammed","Surname":"Pittman","Address":{"HouseNumber":"8645","Street":"SE. Annadale St.","City":"Sussex Drive","PostalCode":" IL 60462"}},{"Name":"Mohammad","Surname":"Rich","Address":{"HouseNumber":"8786","Street":"Arnold Street","City":"Rockland Street","PostalCode":" FL 32082"}},{"Name":"Jaqueline","Surname":"Byrd","Address":{"HouseNumber":"8790","Street":"White St.","City":"Ohio St.","PostalCode":" NJ 08037"}},{"Name":"Leilani","Surname":"Villa","Address":{"HouseNumber":"8794","Street":"Hillside St.","City":"West Stonybrook Rd.","PostalCode":" MA 02149"}},{"Name":"Rashad1","Surname":"Yang","Address":{"HouseNumber":"8701","Street":"Winding Way Drive","City":"Locust Ave.","PostalCode":" SC 29621"}},{"Name":"Raymond","Surname":"Padilla","Address":{"HouseNumber":"8731","Street":"Sage Court","City":"Summit Street","PostalCode":" VA 22191"}},{"Name":"Rachael","Surname":"Skinner","Address":{"HouseNumber":"8742","Street":"Summit Street","City":"Sherman Ave.","PostalCode":" MD 20854"}},{"Name":"Kyleigh","Surname":"Jefferson","Address":{"HouseNumber":"8741","Street":"Ohio St.","City":"W. Fieldstone Dr.","PostalCode":" MD 21801"}},{"Name":"Gretchen","Surname":"Huber","Address":{"HouseNumber":"8778","Street":"Fairview Street","City":"Lees Creek Drive","PostalCode":" MN 55337"}},{"Name":"Gregory1","Surname":"Key","Address":{"HouseNumber":"8774","Street":"Pennington Drive","City":"Brook St.","PostalCode":" MA 01020"}},{"Name":"Krystal","Surname":"Wright","Address":{"HouseNumber":"8088","Street":"Annadale Street","City":"South 2nd St.","PostalCode":" MD 21208"}},{"Name":"Whitney1","Surname":"Harris","Address":{"HouseNumber":"8079","Street":"Hilldale Ave.","City":"10th Court","PostalCode":" FL 32765"}},{"Name":"Kristopher","Surname":"Medina","Address":{"HouseNumber":"8009","Street":"Hawthorne Lane","City":"2nd Court","PostalCode":" NC 27834"}},{"Name":"Rodrigo","Surname":"Booth","Address":{"HouseNumber":"8008","Street":"Philmont Street","City":"Illinois Street","PostalCode":" CO 80911"}},{"Name":"Rodolfo","Surname":"Padilla","Address":{"HouseNumber":"8002","Street":"Maiden St.","City":"Logan St.1","PostalCode":" NJ 08105"}},{"Name":"Broderick","Surname":"Lawrence","Address":{"HouseNumber":"8026","Street":"Armstrong Street","City":"Vernon Lane1","PostalCode":" NY 10952"}},{"Name":"Meredith","Surname":"Poole","Address":{"HouseNumber":"8141","Street":"Glenlake Court","City":"6th Drive","PostalCode":" NJ 07747"}},{"Name":"Valentina","Surname":"Mendoza","Address":{"HouseNumber":"8145","Street":"Trenton Dr.","City":"Bowman Ave.","PostalCode":" NJ 08330"}},{"Name":"Valentino","Surname":"Villa","Address":{"HouseNumber":"8118","Street":"Chapel Drive","City":"S. Southampton St.","PostalCode":" NC 28655"}},{"Name":"Santiago","Surname":"Pacheco","Address":{"HouseNumber":"8292","Street":"Hall St.","City":"Campfire Ave.","PostalCode":" VA 23503"}},{"Name":"Lucille","Surname":"Lopez","Address":{"HouseNumber":"8299","Street":"N. East St.","City":"Pendergast St.1","PostalCode":" NY 11412"}},{"Name":"Luciano","Surname":"Huber","Address":{"HouseNumber":"8266","Street":"Shub Farm Street","City":"South Shadow Brook Street","PostalCode":" FL 32779"}},{"Name":"Frankie","Surname":"Moreno","Address":{"HouseNumber":"8206","Street":"Sherwood Dr.","City":"Buttonwood Rd.","PostalCode":" NY 11377"}},{"Name":"Eve1","Surname":"Wise","Address":{"HouseNumber":"8204","Street":"Newport Lane","City":"Cherry Hill Dr.","PostalCode":" CA 95820"}},{"Name":"Anne","Surname":"Frost","Address":{"HouseNumber":"8202","Street":"Court Dr.","City":"Glenholme St.","PostalCode":" CT 06484"}},{"Name":"Anna","Surname":"Sanders","Address":{"HouseNumber":"8218","Street":"Forest St.","City":"Union Ave.","PostalCode":" GA 31904"}},{"Name":"Andy","Surname":"Mcguire","Address":{"HouseNumber":"8372","Street":"W. River Street","City":"Beechwood Dr.","PostalCode":" AL 35209"}},{"Name":"Alma","Surname":"Mcknight","Address":{"HouseNumber":"8328","Street":"NW. Walnutwood St.","City":"Boston St.","PostalCode":" NC 28792"}},{"Name":"Aria","Surname":"Bautista","Address":{"HouseNumber":"8358","Street":"East Proctor Street","City":"Addison Street","PostalCode":" GA 30083"}},{"Name":"Ayla","Surname":"Alvarez","Address":{"HouseNumber":"8300","Street":"School Ave.","City":"Blackburn Street","PostalCode":" FL 34293"}},{"Name":"Axel","Surname":"Randall","Address":{"HouseNumber":"8332","Street":"Wellington Dr.","City":"Euclid Street","PostalCode":" IN 46544"}},{"Name":"Finn","Surname":"Moore","Address":{"HouseNumber":"8313","Street":"Green Lake Lane","City":"East Proctor Street","PostalCode":" IA 52240"}},{"Name":"Gage","Surname":"Alvarado","Address":{"HouseNumber":"9876","Street":"Forest Court","City":"Forest St.","PostalCode":" MS 38801"}},{"Name":"Dane","Surname":"Spears","Address":{"HouseNumber":"9864","Street":"W. Lantern Ave.","City":"S. Evergreen Dr.","PostalCode":" NY 11787"}},{"Name":"Dale","Surname":"Lin","Address":{"HouseNumber":"9827","Street":"S. Bridgeton Ave.","City":"Thompson St.","PostalCode":" IL 60435"}},{"Name":"Dean","Surname":"Merritt","Address":{"HouseNumber":"9893","Street":"Third St.","City":"Longfellow Dr.","PostalCode":" NY 11580"}},{"Name":"Mina","Surname":"Hebert","Address":{"HouseNumber":"9887","Street":"Oak Meadow Street","City":"Livingston Drive","PostalCode":" VA 23059"}},{"Name":"Maia","Surname":"Olsen","Address":{"HouseNumber":"9933","Street":"East Rock Creek St.","City":"Homestead Dr.","PostalCode":" GA 30084"}},{"Name":"Mark","Surname":"Winters","Address":{"HouseNumber":"9904","Street":"S. Beech Road","City":"Cactus Street","PostalCode":" NJ 08831"}},{"Name":"Myla","Surname":"Khan","Address":{"HouseNumber":"9999","Street":"La Sierra Ave.","City":"W. Newcastle Street","PostalCode":" FL 33056"}},{"Name":"Cali","Surname":"Mcgee","Address":{"HouseNumber":"9981","Street":"Boston Drive","City":"Galvin Rd.1","PostalCode":" CA 92111"}},{"Name":"Cara","Surname":"Benitez","Address":{"HouseNumber":"9411","Street":"Pulaski Dr.","City":"Pennsylvania St.","PostalCode":" KY 42101"}},{"Name":"Cloe","Surname":"Preston","Address":{"HouseNumber":"9405","Street":"Bellevue Drive","City":"Prospect Street","PostalCode":" FL 32714"}},{"Name":"Ivan","Surname":"Banks","Address":{"HouseNumber":"9436","Street":"Walnut Street","City":"Court Dr.","PostalCode":" NY 11001"}},{"Name":"Isai","Surname":"Zavala","Address":{"HouseNumber":"9699","Street":"Bridgeton Street","City":"Wild Horse Dr.","PostalCode":" IA 50010"}},{"Name":"Nora","Surname":"Landry","Address":{"HouseNumber":"9635","Street":"Griffin Lane","City":"Colonial St.","PostalCode":" GA 30132"}},{"Name":"Owen","Surname":"Ritter","Address":{"HouseNumber":"9624","Street":"Vernon Lane","City":"Mayfield Dr.","PostalCode":" NJ 07753"}},{"Name":"Liam","Surname":"Compton","Address":{"HouseNumber":"9585","Street":"Plymouth Street","City":"William St.","PostalCode":" MD 20747"}},{"Name":"Lane","Surname":"Dominguez","Address":{"HouseNumber":"9514","Street":"Edgewood St.","City":"Adams Rd.","PostalCode":" MD 21784"}},{"Name":"Leon","Surname":"Moss","Address":{"HouseNumber":"9538","Street":"Cooper St.","City":"William Ave.","PostalCode":" OH 45066"}},{"Name":"Luna","Surname":"Jacobs","Address":{"HouseNumber":"9503","Street":"NW. Snake Hill Dr.","City":"Hillside Drive","PostalCode":" CT 06066"}},{"Name":"Luis","Surname":"Brock","Address":{"HouseNumber":"9552","Street":"Westminster Lane","City":"Applegate Street","PostalCode":" NC 27103"}},{"Name":"Josh","Surname":"Cooper","Address":{"HouseNumber":"9560","Street":"County St.","City":"Annadale Street","PostalCode":" IN 46947"}},{"Name":"Jake","Surname":"Zamora","Address":{"HouseNumber":"9060","Street":"Country Club Dr.","City":"Smoky Hollow Street","PostalCode":" CT 06511"}},{"Name":"Jade","Surname":"Mccullough","Address":{"HouseNumber":"9005","Street":"Green St.","City":"Creekside Street","PostalCode":" AK 99654"}},{"Name":"Jack","Surname":"Haney","Address":{"HouseNumber":"9033","Street":"El Dorado Circle","City":"Lyme Dr.","PostalCode":" MA 02135"}},{"Name":"Jace","Surname":"Price","Address":{"HouseNumber":"9022","Street":"S. Princess Lane","City":"Green Hill Street","PostalCode":" PA 19380"}},{"Name":"Jude","Surname":"Sosa","Address":{"HouseNumber":"9021","Street":"Oklahoma Ave.","City":"Pilgrim Court","PostalCode":" SD 57401"}},{"Name":"Kody","Surname":"Shah","Address":{"HouseNumber":"9719","Street":"San Juan St.","City":"Depot Drive","PostalCode":" IA 50701"}},{"Name":"Kane","Surname":"Wilkinson","Address":{"HouseNumber":"9704","Street":"Lakeview Circle","City":"Dunbar St.","PostalCode":" IL 60409"}},{"Name":"Kash","Surname":"Leblanc","Address":{"HouseNumber":"9276","Street":"Pennington Ave.","City":"Court Court","PostalCode":" NC 27205"}},{"Name":"Kyra","Surname":"Steele","Address":{"HouseNumber":"9240","Street":"Marvon Dr.","City":"Addison St.1","PostalCode":" IL 60062"}},{"Name":"Tess","Surname":"Joyce","Address":{"HouseNumber":"9225","Street":"Peg Shop Dr.","City":"Pheasant Street","PostalCode":" NC 27012"}},{"Name":"Tori","Surname":"Michael","Address":{"HouseNumber":"9218","Street":"Pennsylvania St.","City":"Pulaski Street","PostalCode":" NJ 08648"}},{"Name":"Todd","Surname":"Fleming","Address":{"HouseNumber":"9205","Street":"Boston St.","City":"Green Lake Lane","PostalCode":" NJ 07202"}},{"Name":"Rubi","Surname":"Tran","Address":{"HouseNumber":"9188","Street":"E. Thompson Ave.","City":"East Gates Ave.","PostalCode":" IL 60139"}},{"Name":"Ruby","Surname":"Richmond","Address":{"HouseNumber":"9170","Street":"Smith Court","City":"W. Gonzales Street","PostalCode":" WV 26508"}},{"Name":"Ryan","Surname":"Frey","Address":{"HouseNumber":"9119","Street":"W. Buttonwood St.","City":"Berkshire Ave.","PostalCode":" MN 55021"}},{"Name":"Rene","Surname":"Shepard","Address":{"HouseNumber":"9121","Street":"S. Bridge Road","City":"Green St.1","PostalCode":" AZ 85718"}},{"Name":"Ross","Surname":"Best","Address":{"HouseNumber":"9359","Street":"Gartner Dr.","City":"Sleepy Hollow Street","PostalCode":" NY 14043"}},{"Name":"Seth","Surname":"Lester","Address":{"HouseNumber":"9353","Street":"Applegate Court","City":"Andover St.","PostalCode":" NC 27540"}},{"Name":"Sean","Surname":"Cameron","Address":{"HouseNumber":"9337","Street":"Market Street","City":"Wood St.","PostalCode":" IA 50322"}},{"Name":"Sara","Surname":"Brandt","Address":{"HouseNumber":"9331","Street":"Shub Farm Street","City":"Arch Lane","PostalCode":" MN 55912"}},{"Name":"Shea","Surname":"Boyle","Address":{"HouseNumber":"9319","Street":"East Leeton Ridge St.","City":"Glen Eagles Ave.","PostalCode":" TX 76522"}},{"Name":"Paul","Surname":"Barker","Address":{"HouseNumber":"9312","Street":"Ridgeview Drive","City":"Galvin Rd.","PostalCode":" IL 60446"}},{"Name":"Yair","Surname":"Castillo","Address":{"HouseNumber":"9305","Street":"W. Newcastle Street","City":"N. Vermont Court","PostalCode":" NY 11756"}}]
